POLYGON ((6.7120651 45.7867086, 6.712042 45.7869295, 6.7120559 45.7871585, 6.7121192 45.7873894, 6.7122223 45.7875315, 6.712472 45.787762, 6.7128211 45.788257, 6.7130986 45.7884505, 6.7134247 45.7887069, 6.7136675 45.7890181, 6.7137928 45.7892668, 6.7137666 45.789423, 6.7138402 45.7895576, 6.7140724 45.7897905, 6.7142719 45.7900961, 6.7145008 45.790405, 6.714728 45.7906855, 6.7149847 45.7908611, 6.7152709 45.7910503, 6.7155439 45.7913525, 6.7156583 45.7914923, 6.7156829 45.7915223, 6.715883 45.7916424, 6.7159812 45.7916808, 6.7160885 45.7917292, 6.7161855 45.7917804, 6.7163915 45.7919206, 6.7166349 45.7921063, 6.7169509 45.7923976, 6.7170692 45.79256, 6.717171 45.7926938, 6.7174088 45.7930173, 6.7175107 45.7932912, 6.7176768 45.7935994, 6.7178096 45.7937245, 6.7178936 45.7938596, 6.7178433 45.7939654, 6.7178303 45.7941949, 6.7178653 45.7942882, 6.7179011 45.7943804, 6.718031 45.7945709, 6.7182403 45.794751, 6.7184136 45.7949562, 6.7184201 45.7951386, 6.7183874 45.7953849, 6.718407 45.7954943, 6.7185411 45.7956288, 6.7187766 45.7957405, 6.7188845 45.7958386, 6.7190414 45.796062, 6.7191345 45.7962531, 6.7193575 45.7965857, 6.7192904 45.7967486, 6.7194777 45.7969791, 6.7196557 45.7971129, 6.7198546 45.7972951, 6.7199309 45.7974353, 6.719917 45.7975272, 6.7199355 45.7977029, 6.7200049 45.7978803, 6.7201055 45.7980421, 6.7201504 45.7981213, 6.720222 45.7982126, 6.7203515 45.7983077, 6.7204163 45.7984125, 6.7204486 45.7985351, 6.7204532 45.7987366, 6.7205272 45.7988655, 6.7207145 45.7989913, 6.7209805 45.799225, 6.7211544 45.7995131, 6.721264 45.7996875, 6.7214157 45.7997801, 6.7217048 45.7999607, 6.7220516 45.8002702, 6.7221279 45.8003637, 6.7222084 45.8005166, 6.722302 45.8007954, 6.7223756 45.8010166, 6.7225653 45.8013369, 6.7226209 45.8014885, 6.7226797 45.8018099, 6.7226797 45.8020333, 6.7226936 45.8021716, 6.7227237 45.8022473, 6.722911 45.8023618, 6.7231607 45.8025713, 6.7232193 45.802718, 6.7232818 45.8029743, 6.7234043 45.8033289, 6.723469 45.8035691, 6.7234991 45.8038754, 6.7236286 45.8041994, 6.723728 45.8043864, 6.7239662 45.8046781, 6.7242321 45.8049618, 6.7245003 45.8053745, 6.7245149 45.8053929, 6.7247593 45.8057017, 6.7248588 45.8059016, 6.7249526 45.8062676, 6.7250801 45.8066905, 6.7251313 45.8068134, 6.725193 45.8069617, 6.7253132 45.8071658, 6.725489 45.807493, 6.7256138 45.8076091, 6.7259247 45.8078696, 6.7261322 45.8082729, 6.7261656 45.8083378, 6.7261605 45.8089087, 6.7268329 45.8095174, 6.7271065 45.8100004, 6.7273733 45.8109038, 6.7272579 45.81121, 6.7271297 45.8113847, 6.7270425 45.811521, 6.7270034 45.8116663, 6.7270707 45.8120091, 6.7270811 45.8121054, 6.7271192 45.8124567, 6.7271544 45.8127067, 6.7270019 45.8132766, 6.7269674 45.8138309, 6.726829 45.8140569, 6.7263171 45.8144975, 6.726264 45.8150435, 6.726263 45.815337, 6.7263542 45.8156953, 6.7264571 45.8159543, 6.7267499 45.8163118, 6.7267677 45.8163574, 6.7268021 45.8164928, 6.7268548 45.8166056, 6.7271363 45.8168626, 6.7272565 45.8169689, 6.727262 45.8169735, 6.7273986 45.8170907, 6.7274951 45.8173225, 6.7273588 45.8177709, 6.727023 45.8187732, 6.7268991 45.8192173, 6.7268716 45.8195246, 6.726858 45.8196763, 6.726846 45.8198638, 6.7265025 45.8203154, 6.7261911 45.8206189, 6.7257956 45.820893, 6.7257289 45.8210618, 6.7257085 45.8211135, 6.725606 45.8214543, 6.7254824 45.8217192, 6.7252225 45.8223346, 6.7250709 45.8226809, 6.7251329 45.8228735, 6.7252426 45.822979, 6.7254078 45.823209, 6.7254389 45.8234949, 6.725397 45.8236351, 6.7254275 45.8239072, 6.7255722 45.8240727, 6.7257552 45.8242848, 6.7259647 45.8246629, 6.7259746 45.8247615, 6.7258939 45.8249229, 6.7257601 45.8250194, 6.7256066 45.8251607, 6.7255528 45.825315, 6.7256123 45.8254742, 6.7257142 45.8255845, 6.725819 45.8257394, 6.7258221 45.8258557, 6.725691 45.8259427, 6.7254917 45.8262178, 6.7255136 45.8263642, 6.7255308 45.8266171, 6.7254969 45.8267527, 6.7254512 45.8268921, 6.7253011 45.8270555, 6.7251482 45.8271708, 6.7249482 45.827534, 6.7252791 45.8278854, 6.7256754 45.8281551, 6.7257144 45.828245, 6.7258754 45.8284619, 6.7259584 45.8285337, 6.726246 45.8286787, 6.7263113 45.8288485, 6.7260888 45.8290314, 6.7258935 45.8293756, 6.7259435 45.8296132, 6.7260763 45.8298139, 6.72618 45.8300222, 6.7261438 45.8302827, 6.7258895 45.8305399, 6.7258412 45.8307698, 6.7259033 45.8311238, 6.7258319 45.8314599, 6.7258912 45.8315765, 6.7262359 45.8318536, 6.7262279 45.8320098, 6.7261558 45.83224, 6.7261487 45.8323352, 6.726266 45.8325138, 6.72647 45.8328111, 6.7265582 45.8329691, 6.7265537 45.8330753, 6.7265023 45.8331607, 6.7264842 45.8332016, 6.7262862 45.833511, 6.7261638 45.8338515, 6.7261428 45.8340883, 6.7262118 45.834262, 6.7263901 45.8345199, 6.7265992 45.834688, 6.72688 45.8349157, 6.7270401 45.8349633, 6.727297 45.8350397, 6.7274968 45.8351731, 6.7276883 45.8353963, 6.7277898 45.8355725, 6.7277567 45.8356873, 6.7277151 45.8358523, 6.7275247 45.8360523, 6.7273235 45.8362729, 6.7273933 45.836469, 6.7275957 45.8366788, 6.7275274 45.8369025, 6.7273074 45.8370633, 6.7268568 45.8370969, 6.7265081 45.8373155, 6.7262935 45.8375827, 6.7262667 45.8378425, 6.7263203 45.8380667, 6.7264599 45.8381882, 6.7265671 45.8382704, 6.7266241 45.8384802, 6.7266368 45.8387524, 6.7265966 45.8390076, 6.7265698 45.839173, 6.7265872 45.8393131, 6.726653 45.8394439, 6.7267495 45.8395261, 6.7269185 45.8396139, 6.7271009 45.8397765, 6.7271917 45.8399247, 6.7272189 45.8400381, 6.7271787 45.8402157, 6.7272404 45.8404455, 6.7272243 45.8406791, 6.7272507 45.8408669, 6.7273111 45.841117, 6.7273835 45.8412148, 6.7274746 45.841308, 6.7276292 45.841386, 6.7277762 45.8414303, 6.7279671 45.8415037, 6.7280844 45.8416099, 6.7281854 45.8417092, 6.7282259 45.8418147, 6.7282413 45.8419675, 6.7282665 45.8420852, 6.7282698 45.8422036, 6.7282501 45.8423504, 6.7282282 45.8424638, 6.7281908 45.8425483, 6.7281799 45.8426446, 6.7281873 45.8427868, 6.7282139 45.8429441, 6.7282336 45.8431046, 6.7282062 45.8432566, 6.7281689 45.8433621, 6.7281283 45.8435042, 6.7281075 45.843599, 6.7280779 45.8437954, 6.7280833 45.8438932, 6.7280921 45.8439803, 6.7281582 45.844154, 6.7281417 45.8442708, 6.728062 45.8444136, 6.7279547 45.8446377, 6.7279327 45.8448044, 6.7279299 45.844973, 6.7279162 45.8450918, 6.7278694 45.8451914, 6.7276411 45.8453217, 6.7275009 45.8454137, 6.7274266 45.8455057, 6.7274266 45.8456015, 6.7274871 45.8456915, 6.7276961 45.8457911, 6.7277787 45.8459061, 6.7277842 45.8460268, 6.7278282 45.8461073, 6.7279382 45.8461705, 6.7282022 45.8462912, 6.7282682 45.8463487, 6.7283205 45.846454, 6.7283156 45.8465586, 6.7282985 45.8466322, 6.7283287 45.8467165, 6.7284058 45.8468161, 6.7284168 45.847002, 6.7283452 45.8471361, 6.7283122 45.847207, 6.7283535 45.8472989, 6.7283645 45.8474445, 6.728436 45.8475691, 6.7288594 45.8480427, 6.7295443 45.8491598, 6.7303919 45.8503929, 6.7301344 45.8514242, 6.7303275 45.8520295, 6.7303176 45.8522914, 6.7301666 45.8525675, 6.7299091 45.8527618, 6.7299842 45.8530383, 6.730746 45.8535016, 6.7309422 45.8539419, 6.7308532 45.8545179, 6.7311322 45.8549251, 6.731497 45.8551978, 6.7314926 45.8555082, 6.7313612 45.8558399, 6.7313682 45.8562888, 6.7313039 45.8568641, 6.7313039 45.8575964, 6.7309069 45.8580149, 6.730349 45.8583287, 6.7300379 45.8593299, 6.7290561 45.8604395, 6.7283642 45.8606711, 6.7279752 45.8608429, 6.7278117 45.8610578, 6.7276131 45.8614986, 6.7269507 45.8626342, 6.7265804 45.8628807, 6.7263468 45.8629537, 6.7260357 45.8630284, 6.7257611 45.8630825, 6.7256297 45.8631638, 6.7255207 45.8632526, 6.7253812 45.8634319, 6.725231 45.8636261, 6.7251023 45.863783, 6.7249364 45.8639165, 6.7247191 45.8639949, 6.7244965 45.8640883, 6.724357 45.8642032, 6.7243114 45.8643386, 6.7243463 45.864475, 6.7244455 45.8646515, 6.7245766 45.8648066, 6.724716 45.8650755, 6.724834 45.8652175, 6.7249628 45.8654043, 6.7250593 45.865606, 6.7250701 45.8657928, 6.7250178 45.8659039, 6.7249695 45.8659552, 6.7246297 45.8661791, 6.7189979 45.880389, 6.7128181 45.90309, 6.7225105 45.9142228, 6.7231485 45.9154451, 6.7234453 45.9159521, 6.7238029 45.9162587, 6.7242239 45.9165078, 6.7250046 45.9167121, 6.7256242 45.9168521, 6.7262299 45.9170499, 6.7279409 45.9184641, 6.7289052 45.9193718, 6.7291914 45.919723, 6.7294006 45.9200684, 6.7296806 45.9209078, 6.730113 45.9217356, 6.7307124 45.9224117, 6.7308233 45.9226726, 6.7307581 45.9231991, 6.730842 45.9234732, 6.7314564 45.9247326, 6.73174 45.9251936, 6.7329213 45.9268525, 6.732972 45.9269413, 6.7335259 45.9279461, 6.7338329 45.9285267, 6.7341359 45.9297544, 6.7342128 45.9302378, 6.7341994 45.9305065, 6.7341669 45.9306061, 6.7340076 45.9309896, 6.7337036 45.931486, 6.7334704 45.9317005, 6.7330653 45.9320604, 6.7330162 45.932416, 6.7330443 45.9325707, 6.7335645 45.9331303, 6.7341411 45.9331947, 6.7347902 45.9332525, 6.7354511 45.9335689, 6.7356743 45.9339688, 6.7355257 45.9343167, 6.7355284 45.9344828, 6.7356459 45.9346098, 6.7358208 45.9345555, 6.7360402 45.9345807, 6.7364811 45.9346016, 6.7370218 45.9346732, 6.7376655 45.9348224, 6.7385067 45.9351806, 6.73885 45.9353895, 6.7397512 45.9351209, 6.7402766 45.9350365, 6.7413391 45.9350015, 6.742103 45.9348045, 6.7427896 45.9340345, 6.7429441 45.9337599, 6.743605 45.9334375, 6.7442659 45.933342, 6.7445165 45.9331881, 6.74465 45.9330802, 6.7453672 45.9327678, 6.7459825 45.9327093, 6.7471498 45.9323511, 6.748197 45.9320765, 6.7491411 45.9313601, 6.7499994 45.9310616, 6.7507891 45.93099, 6.7524971 45.9307811, 6.7532498 45.9305261, 6.7534613 45.9301495, 6.7540316 45.9298992, 6.7541738 45.9298142, 6.7542422 45.9297733, 6.7543489 45.9296392, 6.7544716 45.9295208, 6.7546233 45.9293472, 6.7547809 45.9292516, 6.7550361 45.9291418, 6.7552949 45.9291071, 6.7554667 45.928987, 6.7556299 45.9287662, 6.756051 45.9285355, 6.7567925 45.9284073, 6.7579481 45.9282607, 6.7623312 45.9279832, 6.7642683 45.9278281, 6.7647698 45.9277708, 6.7649323 45.9276935, 6.7652746 45.9275655, 6.7658507 45.9274259, 6.7661654 45.9273094, 6.7664212 45.9271136, 6.766609 45.9268998, 6.7669495 45.926453, 6.767246 45.9262335, 6.7679811 45.9252037, 6.7682032 45.924535, 6.7685768 45.9238797, 6.7689992 45.9232259, 6.7691877 45.9225234, 6.7692438 45.9221018, 6.7694394 45.9215874, 6.7699048 45.9201912, 6.7706445 45.9194073, 6.7709235 45.918643, 6.7713886 45.9183415, 6.7718875 45.9178447, 6.7722844 45.9173032, 6.7723831 45.9171332, 6.7725508 45.9163624, 6.7724651 45.9161421, 6.7722757 45.9159405, 6.7722351 45.9156333, 6.7723737 45.9152797, 6.7727446 45.9148515, 6.7731737 45.9142842, 6.7733077 45.9137172, 6.7738112 45.9126028, 6.7742328 45.9121093, 6.7751922 45.9115456, 6.7753443 45.9111824, 6.7752045 45.9107906, 6.7750855 45.910591, 6.7754768 45.9102849, 6.7753023 45.9099845, 6.7751736 45.9098949, 6.774839 45.9095121, 6.7748438 45.9091536, 6.7748732 45.9085213, 6.7751306 45.9081929, 6.7756885 45.9080137, 6.775989 45.9077569, 6.7764353 45.907088, 6.7768215 45.9066699, 6.7767958 45.9060309, 6.7769331 45.9053859, 6.7773794 45.9048782, 6.7778944 45.9046393, 6.778993 45.9042989, 6.7795252 45.9039226, 6.7796501 45.9030737, 6.7796649 45.9029519, 6.7797387 45.9027945, 6.7808062 45.9019956, 6.7820411 45.9008608, 6.7826127 45.9003705, 6.7833436 45.899991, 6.7835165 45.8998366, 6.7837499 45.8994279, 6.7840801 45.8989669, 6.7846645 45.8984964, 6.7858005 45.8976722, 6.7864401 45.8967455, 6.7874388 45.8959784, 6.7889113 45.8945205, 6.7894574 45.894146, 6.7901402 45.8939444, 6.7904627 45.8938052, 6.7912619 45.893236, 6.7917992 45.89287, 6.7926473 45.8926747, 6.7940525 45.8922756, 6.794838 45.8922945, 6.7953404 45.8923934, 6.7969438 45.8929867, 6.7977746 45.893334, 6.7979443 45.893518, 6.7981642 45.8937877, 6.798177 45.8938034, 6.7983962 45.8939385, 6.7985161 45.8940024, 6.7985684 45.8940099, 6.7987002 45.8940521, 6.799366 45.8942789, 6.7997217 45.8945633, 6.7999899 45.8950187, 6.8011373 45.8962472, 6.8029055 45.8969461, 6.8054289 45.8983154, 6.8097845 45.9000619, 6.8114203 45.9004846, 6.8131705 45.9006569, 6.8145887 45.9006417, 6.8149325 45.900642, 6.8153965 45.9005637, 6.8166338 45.9005267, 6.819054 45.9000735, 6.8192536 45.9000699, 6.8193598 45.9000956, 6.8194438 45.9001609, 6.8196311 45.9003016, 6.8197793 45.900363, 6.8199623 45.9003731, 6.8218247 45.9002354, 6.8231294 45.9004448, 6.8239191 45.9008151, 6.8243139 45.900851, 6.8253953 45.9006121, 6.8260245 45.9005786, 6.8264023 45.9005801, 6.8268141 45.9006454, 6.8272221 45.9009466, 6.827804 45.9017657, 6.8285526 45.9021704, 6.8295767 45.9028866, 6.8298019 45.9032251, 6.8299264 45.9034328, 6.8300935 45.9037212, 6.8303985 45.9040132, 6.8308291 45.9042182, 6.8316445 45.9045006, 6.8329226 45.9051095, 6.8331801 45.9052887, 6.8334977 45.9057246, 6.8337466 45.9059695, 6.8341587 45.9061785, 6.8345533 45.9063099, 6.8354489 45.9064423, 6.8358891 45.906496, 6.836232 45.9065888, 6.8367089 45.9067371, 6.8371256 45.906931, 6.8377395 45.9073781, 6.8386047 45.90803, 6.8388878 45.9081851, 6.8393171 45.9082988, 6.8403899 45.908448, 6.8409735 45.9085734, 6.8414028 45.9087465, 6.8420722 45.9091289, 6.8425528 45.9093378, 6.8435549 45.9095979, 6.8436196 45.9096387, 6.843768 45.9097518, 6.8438436 45.9098798, 6.8440624 45.9100776, 6.8447034 45.9103993, 6.8452354 45.9106305, 6.8454934 45.9108573, 6.8458829 45.9111707, 6.8460289 45.9112727, 6.8472635 45.912172, 6.8479865 45.9127456, 6.8485321 45.9131194, 6.8501773 45.9138827, 6.8510418 45.9144964, 6.8517872 45.9147602, 6.8524986 45.9148561, 6.8534585 45.9148437, 6.8541384 45.9148646, 6.854654 45.9149217, 6.8553677 45.9150402, 6.8562427 45.915292, 6.8578988 45.9155343, 6.8585942 45.915619, 6.8593023 45.9157819, 6.8599815 45.9159761, 6.8611958 45.9164207, 6.8629128 45.9171128, 6.864267 45.9175123, 6.8650823 45.9178361, 6.8658036 45.9182269, 6.8673019 45.9193051, 6.8680252 45.9197984, 6.8683354 45.9200099, 6.8685181 45.920212, 6.8686855 45.9204732, 6.8691626 45.9217966, 6.869338 45.9222211, 6.8694831 45.9224421, 6.8699932 45.9229565, 6.8701733 45.9231183, 6.8703885 45.9233255, 6.8704599 45.9234196, 6.870615 45.9237016, 6.8707301 45.9240497, 6.8708568 45.9244541, 6.870926 45.9247467, 6.8709728 45.9249694, 6.8710664 45.9252751, 6.8718996 45.9278949, 6.8719579 45.9280542, 6.872005 45.9281831, 6.8722403 45.9289532, 6.8724382 45.9295724, 6.8726193 45.9301647, 6.8727093 45.930338, 6.8728906 45.9305615, 6.8729943 45.9307107, 6.8730325 45.9307701, 6.8730771 45.9308531, 6.8734837 45.9315226, 6.8737841 45.9318688, 6.8745944 45.932543, 6.8751674 45.9330657, 6.8763716 45.9341295, 6.8765113 45.9344801, 6.8766306 45.9346895, 6.8767474 45.9348946, 6.8769305 45.9352094, 6.877422 45.9357484, 6.8800922 45.9392722, 6.8803218 45.9394964, 6.8806612 45.9396715, 6.8823041 45.9403523, 6.8833993 45.9409063, 6.8844284 45.9414947, 6.8849429 45.9419332, 6.8878097 45.9445967, 6.8891893 45.9461541, 6.8896557 45.9465262, 6.8923444 45.9482454, 6.892726 45.9485455, 6.8932405 45.9489723, 6.8937715 45.9495262, 6.8962442 45.9520762, 6.896576 45.9523301, 6.8969246 45.95248, 6.8975387 45.9526876, 6.8979037 45.9529069, 6.8981693 45.9531608, 6.8987127 45.9537999, 6.8990355 45.9542606, 6.8992904 45.9544617, 6.8998485 45.9547842, 6.9004968 45.95507, 6.9013642 45.9554659, 6.9018394 45.955779, 6.9019414 45.9559973, 6.9021071 45.9564991, 6.9021851 45.9566563, 6.9022797 45.9568113, 6.9023061 45.9569381, 6.9022971 45.9570362, 6.9022677 45.9571232, 6.902209 45.957195, 6.902178 45.9572304, 6.9021597 45.9572908, 6.9022282 45.9573841, 6.9023951 45.9575231, 6.9025567 45.957848, 6.9026273 45.9579112, 6.9028842 45.9580378, 6.9029386 45.9581043, 6.9029514 45.9581841, 6.9029051 45.9582957, 6.9028781 45.9583527, 6.9028955 45.9584197, 6.9030346 45.9585827, 6.9031662 45.9587783, 6.9034455 45.9589665, 6.9036405 45.9590686, 6.9041794 45.9592863, 6.9046909 45.9594298, 6.9051377 45.9595086, 6.9053285 45.9595927, 6.9056448 45.9597932, 6.9057963 45.9598735, 6.9059436 45.959903, 6.9060809 45.9599171, 6.9064111 45.9599306, 6.9064964 45.9599469, 6.9066074 45.959983, 6.9069468 45.960194, 6.9075908 45.9605694, 6.9077881 45.9608316, 6.9079083 45.9609698, 6.907995 45.9610468, 6.9081485 45.9611694, 6.9082676 45.9611997, 6.9083789 45.9612203, 6.9084259 45.9612515, 6.9084847 45.961328, 6.9085045 45.9614291, 6.9085183 45.9615296, 6.9085736 45.9616018, 6.9086527 45.9616494, 6.9090007 45.9617571, 6.9090728 45.9617939, 6.9091088 45.9618398, 6.9091521 45.9619377, 6.9092279 45.9622312, 6.9093015 45.9623689, 6.909356 45.9624141, 6.9095347 45.9625038, 6.9096308 45.9625382, 6.9098775 45.9627955, 6.9099757 45.9628756, 6.9100939 45.962946, 6.9108732 45.9632019, 6.9111223 45.9633448, 6.911252 45.9634769, 6.9113378 45.9635972, 6.9115578 45.9638125, 6.9117254 45.9640008, 6.9118099 45.9641108, 6.9118421 45.9642087, 6.9118662 45.9643448, 6.9119064 45.9644651, 6.9119856 45.964603, 6.9120835 45.9647084, 6.9122162 45.9648174, 6.9123457 45.9649377, 6.912408 45.9650183, 6.9124925 45.9651796, 6.9125193 45.9652416, 6.9125341 45.9653302, 6.9125167 45.9654243, 6.9125099 45.9655483, 6.9125609 45.9657897, 6.9125395 45.9658848, 6.9125247 45.9659892, 6.9125341 45.9660601, 6.9125488 45.9661132, 6.9126132 45.9662213, 6.9126803 45.966419, 6.9127634 45.9668105, 6.9128036 45.967023, 6.912801 45.9673269, 6.9128439 45.9676158, 6.9128218 45.9687624, 6.9128363 45.9687946, 6.9129301 45.9690031, 6.9132812 45.9695145, 6.9133847 45.9696653, 6.9134172 45.9698156, 6.9135907 45.9701216, 6.9136461 45.9703254, 6.9137435 45.9706269, 6.9138818 45.9710552, 6.9141285 45.9713127, 6.9142573 45.9716332, 6.9143484 45.9719277, 6.914783 45.9724088, 6.9153301 45.972856, 6.9159256 45.9733259, 6.9162766 45.9736554, 6.9169985 45.9740043, 6.9180499 45.9744927, 6.9193213 45.9747724, 6.920207 45.975167, 6.9205873 45.9756224, 6.9209681 45.9759766, 6.9215128 45.976452, 6.9218025 45.976698, 6.9220893 45.9769476, 6.9230899 45.9776487, 6.9237471 45.9780587, 6.9240797 45.9782861, 6.9241841 45.9783736, 6.9242996 45.9786067, 6.9243424 45.9788285, 6.9245542 45.9790607, 6.924836 45.9792703, 6.9252543 45.9795815, 6.9254904 45.9797716, 6.9257478 45.9799469, 6.9260966 45.9800773, 6.9263594 45.9802748, 6.9265525 45.9804128, 6.9268422 45.9805581, 6.9270568 45.9807333, 6.9272371 45.9808937, 6.9273633 45.9809882, 6.9275503 45.9811136, 6.9278454 45.9813485, 6.9281921 45.9815176, 6.9283436 45.9816304, 6.9286071 45.9818443, 6.9287072 45.9819882, 6.9287212 45.9820838, 6.9287034 45.9821774, 6.9286125 45.9824183, 6.928335 45.9829664, 6.9281296 45.9833651, 6.9280397 45.9835578, 6.9279312 45.9837528, 6.9278899 45.9839731, 6.9278723 45.9841675, 6.9278762 45.9843408, 6.9279824 45.9847213, 6.9280328 45.9848242, 6.9280761 45.9850186, 6.9280884 45.9852447, 6.9281228 45.9855476, 6.9281432 45.9858579, 6.9281933 45.9859725, 6.92833 45.9862042, 6.928321 45.9865266, 6.928381 45.9866833, 6.9285429 45.9869114, 6.9286124 45.9869929, 6.9286247 45.9870963, 6.9285214 45.9872119, 6.9285274 45.987272, 6.9286783 45.9873824, 6.9288043 45.9875752, 6.9289933 45.9879656, 6.9290176 45.9881306, 6.928992 45.9882881, 6.9289797 45.9884227, 6.9291426 45.9887096, 6.9290951 45.9888439, 6.9289787 45.9891838, 6.9290202 45.9894658, 6.9291536 45.9896951, 6.929267 45.9899737, 6.929327 45.9901499, 6.9294634 45.9902854, 6.9295072 45.9903344, 6.929578 45.9904135, 6.9270944 45.9927876, 6.9265365 45.9968722, 6.9249073 45.9981952, 6.9236827 46.0001068, 6.9237256 46.0025513, 6.923633 46.0039137, 6.9228272 46.0075856, 6.9231032 46.0076396, 6.9233901 46.0077733, 6.9235883 46.0078364, 6.9236661 46.0079519, 6.9236926 46.0081327, 6.9239447 46.0084309, 6.9241143 46.0085585, 6.9242922 46.0086854, 6.924404 46.0089045, 6.9243769 46.0089998, 6.9243163 46.0090723, 6.9242208 46.0091388, 6.924096 46.0092312, 6.9240167 46.0093411, 6.9241033 46.0094746, 6.9241522 46.0095659, 6.9241461 46.0097906, 6.9241296 46.0098788, 6.9240411 46.0101228, 6.9240628 46.0102865, 6.9238847 46.010463, 6.9237395 46.0106895, 6.9237547 46.0111489, 6.9239233 46.0113395, 6.9241156 46.0117375, 6.9240443 46.0119167, 6.9237051 46.0122039, 6.9235875 46.0123605, 6.9234407 46.0124559, 6.9232748 46.0125302, 6.9230974 46.0126274, 6.922972 46.0127449, 6.9229155 46.0128522, 6.9228277 46.0129896, 6.9226759 46.0131934, 6.9225267 46.0134224, 6.9224338 46.0135741, 6.9223668 46.0136767, 6.9222432 46.0138269, 6.9221057 46.0139747, 6.921988 46.0140862, 6.921879 46.0141663, 6.9218359 46.0142592, 6.9218641 46.0143542, 6.9218673 46.0143743, 6.9216832 46.0146046, 6.921477 46.0147446, 6.9212989 46.0148733, 6.9210411 46.0151443, 6.9207649 46.0153011, 6.9203511 46.0157015, 6.9203731 46.0158778, 6.9201612 46.0162104, 6.9201492 46.0163273, 6.9203182 46.0165229, 6.9202673 46.0167832, 6.9205078 46.0170518, 6.9204693 46.0172862, 6.9203419 46.0174989, 6.920614 46.0175385, 6.9206642 46.0176174, 6.9206373 46.017816, 6.9206751 46.0179207, 6.9206277 46.0180492, 6.9206659 46.0183311, 6.9207663 46.018489, 6.9207769 46.0186151, 6.9208586 46.0187232, 6.92108 46.0189369, 6.9213716 46.0192085, 6.9215597 46.019459, 6.9217854 46.0195511, 6.922046 46.0197126, 6.92218 46.0199248, 6.922507 46.0201849, 6.9227156 46.0204194, 6.9228938 46.020812, 6.9230445 46.0210489, 6.9231359 46.0212729, 6.9232594 46.021273, 6.9233637 46.0213902, 6.9234198 46.0217119, 6.9234742 46.0218413, 6.9234337 46.0219644, 6.9234579 46.0220799, 6.9236278 46.0221995, 6.9236401 46.0223458, 6.9237116 46.0224188, 6.9237893 46.0224539, 6.9238235 46.0224893, 6.9238316 46.0225265, 6.923847 46.0225596, 6.9238865 46.0225996, 6.9239637 46.022655, 6.9240186 46.0226914, 6.9241333 46.0227859, 6.9242513 46.0228576, 6.924305 46.0229097, 6.9243613 46.0229488, 6.9244578 46.0230066, 6.9245356 46.0230448, 6.9245665 46.0231137, 6.9245879 46.0232217, 6.9246174 46.0233539, 6.9246201 46.0234629, 6.9246121 46.0235676, 6.9246034 46.0236431, 6.9245812 46.0236882, 6.9245464 46.0237692, 6.9244195 46.024015, 6.924301 46.0241615, 6.9242247 46.0242912, 6.9241791 46.0244543, 6.9239885 46.0245944, 6.923872 46.0247312, 6.9238099 46.0248041, 6.923684 46.0250422, 6.9238182 46.0252493, 6.9241537 46.0254381, 6.9246576 46.0256403, 6.9250298 46.0258327, 6.9257339 46.0259964, 6.9260669 46.026155, 6.9264741 46.0264168, 6.9268271 46.0266403, 6.9270417 46.0268594, 6.9273385 46.0271055, 6.9275168 46.0274121, 6.9275853 46.0276219, 6.9276022 46.0279097, 6.9275727 46.0282501, 6.9275381 46.0284439, 6.9278361 46.0287051, 6.928314 46.0289438, 6.9286884 46.0290753, 6.9291318 46.0294217, 6.9293562 46.0296218, 6.929501 46.0297509, 6.929765 46.0300388, 6.9299233 46.0304525, 6.9300608 46.0307051, 6.9303378 46.0311142, 6.9306373 46.0315281, 6.9310318 46.0319154, 6.9312059 46.032112, 6.9314123 46.0322597, 6.9315859 46.0324093, 6.9318668 46.0326513, 6.9324498 46.0331033, 6.932941 46.0335488, 6.9333191 46.0338474, 6.9336227 46.0343463, 6.9339208 46.0346936, 6.9343596 46.0348124, 6.9347128 46.0349498, 6.9348636 46.0351006, 6.9351077 46.0352375, 6.9358127 46.0355833, 6.9361646 46.0357917, 6.9363814 46.0359499, 6.9364052 46.0361463, 6.9365772 46.0364633, 6.9367778 46.036774, 6.9369788 46.0370037, 6.9369008 46.0371993, 6.9368726 46.0373827, 6.9370097 46.0376302, 6.9371114 46.0380614, 6.9372741 46.0384395, 6.9375394 46.0389146, 6.9377523 46.0391134, 6.9381387 46.0393862, 6.9383381 46.0395958, 6.9385846 46.0401931, 6.9387166 46.0404662, 6.938991 46.040703, 6.9394944 46.0415886, 6.9396353 46.0419676, 6.9396604 46.0422652, 6.9396608 46.0423563, 6.939564 46.0424946, 6.9394863 46.0425755, 6.9394627 46.0426319, 6.9394314 46.0427403, 6.9395571 46.0430237, 6.9397628 46.0433089, 6.9399621 46.043506, 6.940012 46.0436665, 6.9399361 46.0438131, 6.9400617 46.0443547, 6.9401413 46.0446096, 6.9403355 46.0449307, 6.9405552 46.0450639, 6.9407109 46.0451584, 6.9409448 46.0453462, 6.9411527 46.0456566, 6.9411923 46.0458676, 6.9410686 46.0461258, 6.940861 46.0463368, 6.9409296 46.0465466, 6.9411204 46.0467413, 6.9411323 46.0469686, 6.9412418 46.0472324, 6.9414066 46.0474636, 6.9415113 46.0474811, 6.9416079 46.0474621, 6.9417635 46.0474178, 6.9419159 46.0474427, 6.9420527 46.0475384, 6.942109 46.0475861, 6.942264 46.0477171, 6.942535 46.0480857, 6.9427058 46.0483875, 6.9427646 46.0486534, 6.9429878 46.0489733, 6.9430716 46.0492075, 6.9431251 46.0492585, 6.9433602 46.0494238, 6.9438961 46.0499546, 6.9440858 46.0501425, 6.9441407 46.0503965, 6.9441925 46.0505864, 6.944314 46.0506711, 6.9444726 46.0507086, 6.9446227 46.0506737, 6.9447712 46.0506047, 6.945098 46.0505475, 6.9451937 46.0505651, 6.9453013 46.050589, 6.9454274 46.0506527, 6.9456527 46.0508664, 6.9458324 46.0509399, 6.9461292 46.050982, 6.9463673 46.0510538, 6.9467286 46.051261, 6.9470394 46.0513345, 6.9472525 46.0513461, 6.9476004 46.0512261, 6.9476313 46.0512255, 6.9477741 46.0512225, 6.9480341 46.0512329, 6.9483004 46.0511796, 6.9484856 46.0511856, 6.948699 46.0512539, 6.9487178 46.0512653, 6.9489379 46.0514314, 6.9489632 46.0514733, 6.9489886 46.0515155, 6.9490497 46.0516166, 6.9491677 46.051866, 6.9492173 46.0519116, 6.9492736 46.0519423, 6.949411 46.0520147, 6.9494424 46.0520369, 6.949926 46.0523787, 6.9503405 46.052641, 6.9505915 46.0527427, 6.9508923 46.0528283, 6.9511636 46.0528933, 6.9512834 46.0529371, 6.9513604 46.0529652, 6.9517503 46.0534283, 6.9521358 46.0539455, 6.9524079 46.0541862, 6.9528295 46.0544057, 6.9531894 46.0545603, 6.9538835 46.0549536, 6.9540505 46.0549881, 6.954429 46.0550171, 6.9549323 46.0550204, 6.9560102 46.0554606, 6.956223 46.0555738, 6.9567105 46.0564334, 6.9569557 46.0567085, 6.9569695 46.0567574, 6.9570472 46.0570314, 6.9578893 46.0576095, 6.9581616 46.0578359, 6.9582463 46.0580302, 6.9584667 46.0583242, 6.9589072 46.05863, 6.9593417 46.0588896, 6.9598626 46.0590219, 6.9607995 46.0592787, 6.9611933 46.0596127, 6.9617501 46.0600336, 6.9620248 46.0604125, 6.9623172 46.0605647, 6.9624882 46.0607203, 6.9625712 46.0607959, 6.9633961 46.0615918, 6.9633897 46.0618187, 6.9634373 46.062191, 6.9635539 46.0623647, 6.9637467 46.0624103, 6.9638394 46.0625924, 6.964202 46.0630832, 6.9643683 46.0634257, 6.9645024 46.0637793, 6.9645937 46.0641079, 6.9646687 46.0643078, 6.9647527 46.0646184, 6.9649095 46.0650478, 6.9651515 46.0654579, 6.9653661 46.0659343, 6.9656665 46.0661428, 6.965752 46.0662822, 6.9657523 46.0669765, 6.9657952 46.0672296, 6.9658385 46.0676274, 6.9658995 46.0678041, 6.9661386 46.0680931, 6.9661815 46.0682717, 6.9663531 46.0684652, 6.9663746 46.0687034, 6.9663853 46.0690384, 6.9663102 46.069217, 6.9662673 46.0694999, 6.9662244 46.0696562, 6.9662995 46.0699763, 6.9664604 46.0699837, 6.9667591 46.0708698, 6.967014 46.0716724, 6.9684055 46.0726603, 6.9691756 46.0728169, 6.9702437 46.0730458, 6.9709288 46.0732776, 6.9713627 46.0738043, 6.9715796 46.0741304, 6.9720546 46.0748807, 6.9725504 46.0757981, 6.9737345 46.077172, 6.9737154 46.0763402, 6.97383 46.0757615, 6.9744629 46.0753183, 6.9750345 46.074439, 6.9754742 46.0739208, 6.9756969 46.0734716, 6.9759641 46.0732379, 6.9760338 46.0730202, 6.9761825 46.0727818, 6.9765095 46.0725535, 6.9767962 46.0723196, 6.9769826 46.0721781, 6.9771587 46.0719966, 6.9773006 46.0718789, 6.9774588 46.071784, 6.9776022 46.0717477, 6.9777074 46.0717109, 6.9777679 46.0716984, 6.977937 46.071696, 6.9780053 46.0716787, 6.978069 46.0716419, 6.9781425 46.07153, 6.9781875 46.0715024, 6.9782465 46.0714877, 6.9784338 46.0714461, 6.9786629 46.0713788, 6.9788068 46.0713098, 6.9788492 46.0712738, 6.9789265 46.0712007, 6.9790288 46.0711459, 6.9791074 46.0710964, 6.9791844 46.0710768, 6.9794548 46.0709876, 6.979812 46.0707231, 6.9801976 46.070303, 6.9803618 46.0700485, 6.9808038 46.0698743, 6.9809906 46.0696213, 6.9815093 46.069422, 6.9817303 46.0692429, 6.981995 46.0690237, 6.9825297 46.0687654, 6.9828086 46.068401, 6.9833144 46.0681481, 6.9835589 46.0681064, 6.9836455 46.0680692, 6.9837606 46.0679939, 6.9837978 46.0679331, 6.9838639 46.0678897, 6.9839592 46.0678807, 6.9840437 46.0678696, 6.9841766 46.0678144, 6.984253 46.0677618, 6.9843991 46.0676368, 6.9844967 46.0675225, 6.9846282 46.0674167, 6.9846889 46.0673162, 6.9847437 46.0672763, 6.9848376 46.0672457, 6.9849562 46.06723, 6.9851538 46.0671815, 6.9852163 46.0671508, 6.9852422 46.0671279, 6.9853086 46.0670636, 6.9855202 46.066859, 6.9858589 46.0667035, 6.9860857 46.0665854, 6.9865704 46.0663606, 6.986779 46.0662119, 6.9869481 46.0660711, 6.987051 46.0659274, 6.9872609 46.0658345, 6.9875033 46.0658169, 6.9877274 46.0657094, 6.9879049 46.0656145, 6.988291 46.0655148, 6.9884799 46.0654346, 6.9886095 46.0653232, 6.9887383 46.0651709, 6.9887716 46.0651315, 6.9888829 46.065021, 6.9889097 46.0649771, 6.9889294 46.0649448, 6.9890393 46.0648548, 6.989169 46.064804, 6.9893268 46.0647062, 6.9894283 46.0645361, 6.9897665 46.0641117, 6.9900906 46.0637011, 6.990433 46.0633286, 6.9909605 46.0627702, 6.9913328 46.0622607, 6.9918589 46.0616351, 6.9921852 46.0613326, 6.9923362 46.0612006, 6.9924022 46.0610053, 6.9924943 46.0608541, 6.9926564 46.0607151, 6.9927497 46.0606101, 6.992813 46.0605762, 6.9930855 46.0604613, 6.9931912 46.0603745, 6.9932244 46.0603161, 6.9932809 46.0600094, 6.9933363 46.0598109, 6.9934469 46.0595189, 6.9935206 46.0592488, 6.9935327 46.0588935, 6.9935703 46.0587484, 6.9936615 46.0586218, 6.9936347 46.0584403, 6.9935613 46.0579041, 6.9935603 46.0577448, 6.9937526 46.057358, 6.9940155 46.0570881, 6.9972354 46.0568115, 6.9989198 46.0573476, 7.0020312 46.0582038, 7.003485 46.0582559, 7.0072401 46.0596853, 7.0105875 46.0606829, 7.0130765 46.0615018, 7.0152438 46.0620825, 7.0160476 46.0629992, 7.0177716 46.0636851, 7.018587 46.0645115, 7.0189411 46.0650847, 7.0194748 46.0653936, 7.0201282 46.0654884, 7.0203951 46.0655922, 7.02044 46.0656247, 7.0204662 46.0656699, 7.020499 46.0656983, 7.0205513 46.0657197, 7.0207371 46.0658541, 7.0208236 46.0659072, 7.0208471 46.0659425, 7.0208672 46.0659993, 7.0212722 46.066204, 7.0213345 46.0662556, 7.0213875 46.0662798, 7.0214083 46.0663082, 7.0214937 46.0663595, 7.0215598 46.0664101, 7.0220387 46.0666507, 7.022236 46.0667569, 7.0224345 46.0669169, 7.0227134 46.0672296, 7.0229199 46.0674994, 7.0230299 46.0675683, 7.0234349 46.0676781, 7.0237836 46.0678213, 7.0238963 46.0679572, 7.0241269 46.0681414, 7.0245239 46.068281, 7.0248163 46.0683666, 7.0252052 46.068374, 7.0253768 46.0684262, 7.0255384 46.0685389, 7.0256648 46.0686652, 7.0257721 46.0687675, 7.025957 46.0690502, 7.0260026 46.0694129, 7.0260321 46.0694836, 7.0262546 46.0696844, 7.0263403 46.069809, 7.0263913 46.0698611, 7.0265119 46.0699113, 7.0265655 46.0699671, 7.0266647 46.0701345, 7.0267371 46.0701995, 7.0269247 46.0702684, 7.0273053 46.0705138, 7.0276457 46.070644, 7.0279379 46.0707798, 7.0282757 46.0709806, 7.0284285 46.0711015, 7.028726 46.0714121, 7.0290343 46.0716705, 7.0293077 46.071836, 7.0293359 46.0718487, 7.0295933 46.0719649, 7.0300892 46.0721323, 7.0303332 46.0722122, 7.0304324 46.0722624, 7.0305289 46.0723052, 7.0307165 46.0723443, 7.0314017 46.0725198, 7.0318038 46.0726611, 7.0319834 46.0727448, 7.0322408 46.0729605, 7.0324552 46.0731037, 7.0325201 46.0731817, 7.0325362 46.0732561, 7.0324826 46.0733472, 7.0324719 46.073442, 7.0325389 46.073548, 7.0328096 46.0738511, 7.0328943 46.0740416, 7.0329935 46.0741736, 7.0330766 46.0742721, 7.0331248 46.0744507, 7.0332749 46.074605, 7.0334706 46.0747705, 7.0339504 46.0749174, 7.0342694 46.0749416, 7.0345723 46.0748561, 7.0347577 46.0748626, 7.035007 46.0750476, 7.0351571 46.0750968, 7.0356476 46.0754232, 7.0359318 46.0755441, 7.0361033 46.0756241, 7.0363365 46.0758379, 7.0364722 46.0759137, 7.0367939 46.0760774, 7.0371423 46.0763135, 7.0377647 46.0765007, 7.0380403 46.0766222, 7.0382174 46.0767858, 7.0383112 46.0768862, 7.03833 46.0769848, 7.0384158 46.077353, 7.0384453 46.0774571, 7.038515 46.0775389, 7.0386141 46.077591, 7.0387857 46.0776449, 7.039102 46.0776746, 7.0396916 46.0777193, 7.0401072 46.0777825, 7.0403743 46.0779635, 7.040812 46.0782839, 7.0413223 46.0785357, 7.0415921 46.0787368, 7.041927 46.0793623, 7.0422979 46.0798223, 7.0423962 46.0799038, 7.0425417 46.0799567, 7.0426958 46.0800015, 7.0429035 46.0800166, 7.0432447 46.0800228, 7.0433534 46.0800349, 7.0435932 46.0800631, 7.043783 46.080089, 7.0439169 46.0801229, 7.0440543 46.0801568, 7.04413 46.0801851, 7.0442406 46.0802271, 7.0443616 46.0802521, 7.0444885 46.0802562, 7.0446015 46.0802586, 7.0446655 46.0802586, 7.0447773 46.0802352, 7.0448786 46.0802045, 7.0449903 46.0801681, 7.0450334 46.0801504, 7.0451161 46.0801358, 7.0451743 46.080135, 7.0452139 46.0801399, 7.0453641 46.080156, 7.0454665 46.0801479, 7.0456156 46.0801245, 7.0457949 46.0800882, 7.0458798 46.0800793, 7.046058 46.0800809, 7.0461313 46.0800841, 7.0464433 46.0800954, 7.0466448 46.080093, 7.0470243 46.0800591, 7.0471803 46.0800333, 7.0472525 46.0800252, 7.0474574 46.0800212, 7.0477036 46.0799911, 7.0477668 46.0799783, 7.047827 46.0799711, 7.0479189 46.0799672, 7.0481238 46.079961, 7.0481855 46.0799561, 7.0482624 46.0799545, 7.0483672 46.0799626, 7.0485119 46.0799765, 7.048699 46.0799994, 7.0488708 46.0800215, 7.0489942 46.0800401, 7.0492061 46.0800683, 7.0493284 46.0800917, 7.0494995 46.0801321, 7.049744 46.0801975, 7.0499792 46.0802735, 7.0501189 46.0803082, 7.0502877 46.080334, 7.0504379 46.0803591, 7.0506125 46.0803817, 7.0507976 46.0803986, 7.0514314 46.0804708, 7.0519387 46.0804727, 7.052945 46.080298, 7.0536795 46.0804323, 7.0544008 46.0806509, 7.0547351 46.0807703, 7.0548528 46.0804004, 7.0548898 46.0799385, 7.0546595 46.0794909, 7.0542929 46.0791529, 7.0540698 46.0788259, 7.0540007 46.0785864, 7.0535815 46.0780143, 7.0534639 46.0776851, 7.0533991 46.0771355, 7.0532243 46.076671, 7.0532521 46.0760262, 7.0533719 46.0753067, 7.0533169 46.0748179, 7.0535898 46.0745735, 7.0541251 46.0742692, 7.0546078 46.0741987, 7.055484 46.0742494, 7.0562642 46.0740991, 7.0565971 46.0741253, 7.0569968 46.0740532, 7.0578544 46.0737177, 7.0587896 46.0737091, 7.0592134 46.073595, 7.0594679 46.0735265, 7.0602541 46.0734518, 7.0605969 46.0735376, 7.0607695 46.0736884, 7.0609861 46.0738833, 7.0611636 46.0739944, 7.0613778 46.0740829, 7.0615683 46.07414, 7.0616133 46.0741517, 7.0619016 46.0742271, 7.0624036 46.0743832, 7.0626837 46.0744681, 7.0628595 46.0743022, 7.0630172 46.0741264, 7.0631694 46.0739091, 7.0632975 46.0737634, 7.0634323 46.0736483, 7.0636281 46.0735543, 7.063671 46.0735409, 7.0639301 46.0735073, 7.064106 46.0734861, 7.0644783 46.0734055, 7.0647703 46.0733249, 7.0651874 46.0732335, 7.0654154 46.0731977, 7.0654969 46.0731805, 7.0657478 46.0731474, 7.0659884 46.0731213, 7.066085 46.0731092, 7.0662225 46.0730873, 7.0663892 46.0730566, 7.0665536 46.0730168, 7.0670288 46.0729073, 7.0673063 46.0728599, 7.0675875 46.0728162, 7.0678759 46.0727656, 7.0681743 46.0727072, 7.0684642 46.0726275, 7.0687618 46.0725155, 7.0690217 46.0724358, 7.0692111 46.0723849, 7.0693752 46.0723456, 7.0695465 46.0722916, 7.069736 46.0721579, 7.0699721 46.0719195, 7.0700828 46.0718353, 7.0703543 46.0717119, 7.0706544 46.0715315, 7.0708758 46.0713205, 7.0709824 46.0712044, 7.0710325 46.0711361, 7.0711806 46.070906, 7.0712743 46.0707338, 7.0713063 46.070689, 7.0713148 46.0706632, 7.0713294 46.0705361, 7.0713332 46.0704956, 7.0713322 46.070458, 7.0713181 46.0704299, 7.0712474 46.0703325, 7.0711172 46.0701364, 7.071042 46.0700073, 7.0709741 46.0698667, 7.070943 46.0697588, 7.0709232 46.0696798, 7.0709232 46.069634, 7.070943 46.0695013, 7.070958 46.0694432, 7.0709778 46.0693732, 7.0710551 46.0692314, 7.0711672 46.0690452, 7.071219 46.0689798, 7.071299 46.0688556, 7.0713508 46.0687589, 7.0713838 46.0686844, 7.0714055 46.0686106, 7.0714366 46.0685367, 7.0714855 46.0684642, 7.0715289 46.0684112, 7.0715884 46.0683515, 7.0716744 46.0682646, 7.0717541 46.0681709, 7.0716015 46.067911, 7.0716042 46.0674914, 7.0715096 46.0672981, 7.0718317 46.0668794, 7.0718514 46.0664707, 7.0719456 46.0663899, 7.072177 46.0664001, 7.0728018 46.0661554, 7.072909 46.0657742, 7.0728802 46.0655654, 7.0730978 46.0652181, 7.073467 46.0647959, 7.0736889 46.0646532, 7.0738422 46.0644872, 7.0739648 46.0643546, 7.0740449 46.064271, 7.0742338 46.0641077, 7.0743228 46.0637264, 7.0746187 46.0635927, 7.07481 46.0631199, 7.0753187 46.0627055, 7.0753588 46.0619319, 7.0751563 46.0616414, 7.0750889 46.061377, 7.0758912 46.0604642, 7.0759875 46.060148, 7.0756744 46.0597495, 7.0756094 46.0595871, 7.075663 46.0594953, 7.0761885 46.0589687, 7.076633 46.058767, 7.0772497 46.0583691, 7.0773491 46.0582402, 7.0774108 46.0580578, 7.077502 46.0576577, 7.0776575 46.0570071, 7.0777682 46.0567104, 7.0783777 46.0554681, 7.0788791 46.0550203, 7.0791386 46.0549474, 7.0808908 46.0531443, 7.0816982 46.0527197, 7.0817639 46.0526786, 7.0823214 46.0522187, 7.0839433 46.051476, 7.0839701 46.0514127, 7.08408 46.0513457, 7.0841149 46.0513047, 7.0841847 46.0510962, 7.0842168 46.050979, 7.0844663 46.0507184, 7.0846098 46.0504001, 7.0846755 46.0502418, 7.0847586 46.0501823, 7.0848606 46.0500864, 7.0849437 46.04997, 7.0851435 46.0497783, 7.0853514 46.0495745, 7.0855526 46.0494609, 7.0857216 46.0493883, 7.0858543 46.0493241, 7.0859683 46.0492831, 7.0860045 46.0492245, 7.0860716 46.0491472, 7.0862768 46.0489788, 7.0863841 46.0489099, 7.08649 46.0488298, 7.0866308 46.0487554, 7.0866791 46.0486977, 7.0869245 46.0485339, 7.0871029 46.0482984, 7.0873443 46.0480982, 7.0875964 46.048034, 7.0877694 46.0480024, 7.0878646 46.0479623, 7.0879518 46.0479074, 7.088035 46.0478069, 7.0880806 46.0477259, 7.088161 46.0476552, 7.0881999 46.0476142, 7.0882683 46.0476124, 7.0883568 46.0476058, 7.0884587 46.047523, 7.0885768 46.0474392, 7.0887297 46.0473834, 7.0888892 46.0473517, 7.0889939 46.0473443, 7.0890676 46.0473508, 7.0891883 46.0473908, 7.0892554 46.0474271, 7.0893546 46.0474672, 7.089419 46.0474662, 7.0895155 46.0474495, 7.0896644 46.0473862, 7.0897422 46.0473815, 7.0898347 46.047389, 7.0901083 46.0474141, 7.09028 46.0473927, 7.0904637 46.0473313, 7.0905696 46.0473154, 7.0907239 46.0473033, 7.0908258 46.0472819, 7.0908714 46.0472205, 7.0909344 46.0471367, 7.0910216 46.0470976, 7.0911691 46.0470623, 7.0912751 46.0470511, 7.0913582 46.0470232, 7.0913985 46.0469673, 7.0913971 46.0469105, 7.0914186 46.0468612, 7.0914856 46.0467476, 7.0915312 46.0467011, 7.091668 46.0466573, 7.0917498 46.0466406, 7.0918464 46.046541, 7.0919094 46.0464432, 7.0919979 46.0462636, 7.0920744 46.0461742, 7.0921602 46.0459331, 7.0921924 46.0458317, 7.0922608 46.0456716, 7.092297 46.045572, 7.0923238 46.0455124, 7.0923654 46.0454593, 7.0924673 46.0452881, 7.0924834 46.0451577, 7.0924874 46.0450358, 7.0924606 46.0449688, 7.0923962 46.0449111, 7.0923305 46.0448571, 7.0923064 46.0447705, 7.0923238 46.0446839, 7.0924485 46.0444643, 7.0925371 46.0443014, 7.0925786 46.0441134, 7.0926054 46.0439664, 7.0926373 46.0438791, 7.0927929 46.0437563, 7.0929029 46.0436259, 7.0929782 46.0435475, 7.0929782 46.043406, 7.0930051 46.0433222, 7.0930665 46.0432796, 7.0931177 46.0432347, 7.0931311 46.0431621, 7.0931362 46.0430879, 7.0931767 46.0430299, 7.0933216 46.0430001, 7.0933857 46.0429483, 7.093394 46.0428772, 7.0935117 46.0427807, 7.0936727 46.0427304, 7.0937346 46.0426296, 7.0937749 46.0425477, 7.0939167 46.0425275, 7.0940348 46.0424735, 7.0939841 46.0423373, 7.0939277 46.0422908, 7.0938473 46.042233, 7.0938604 46.0421738, 7.0939733 46.0421176, 7.0940857 46.0420565, 7.0941957 46.0419932, 7.0943328 46.041911, 7.0944693 46.0418386, 7.0945205 46.0417192, 7.0945151 46.0416633, 7.0945015 46.0415147, 7.0945497 46.0413899, 7.0947616 46.0411833, 7.0949735 46.0409934, 7.0951211 46.0409189, 7.0952635 46.0407548, 7.0953252 46.04063, 7.0953439 46.0404829, 7.0953732 46.0402952, 7.0953922 46.0401404, 7.0954832 46.0400289, 7.0956229 46.0399262, 7.0958214 46.0397419, 7.0960414 46.0397169, 7.0960997 46.0397009, 7.0962261 46.0396677, 7.0963629 46.0395318, 7.0964809 46.0393363, 7.0966582 46.0390996, 7.0967599 46.0389639, 7.0968538 46.0388708, 7.0969986 46.0388038, 7.0971408 46.0387647, 7.097295 46.0386493, 7.0973925 46.0386038, 7.0974784 46.0386001, 7.0975776 46.0386234, 7.0976661 46.0386625, 7.0977493 46.0386476, 7.0979156 46.0386569, 7.0979397 46.0385815, 7.0980966 46.0385284, 7.0983072 46.0384819, 7.0983273 46.038386, 7.0982575 46.0383087, 7.0982254 46.0382324, 7.098279 46.0381905, 7.098271 46.0381039, 7.0983528 46.0379466, 7.0982884 46.0377809, 7.0981342 46.0376338, 7.0979089 46.0374988, 7.0978673 46.0372995, 7.0978019 46.0371939, 7.0977394 46.037184, 7.0976569 46.0371249, 7.0974656 46.0370994, 7.0973726 46.0369278, 7.0972108 46.0368406, 7.09707 46.0368545, 7.0969131 46.036835, 7.0968165 46.0366711, 7.096787 46.0364868, 7.0969855 46.036241, 7.0970097 46.0361321, 7.0971572 46.0359822, 7.0973543 46.0357718, 7.0976533 46.035561, 7.0978679 46.0354828, 7.0979449 46.0354931, 7.0980024 46.0354971, 7.0980495 46.0355059, 7.0981047 46.0355091, 7.0981323 46.0355035, 7.0981518 46.0354812, 7.0982208 46.035391, 7.0982277 46.0353654, 7.0982703 46.0353096, 7.098376 46.035205, 7.0984082 46.0351827, 7.0984324 46.0351635, 7.0984473 46.035146, 7.0984381 46.0351124, 7.098422 46.0350725, 7.0984163 46.0350574, 7.0984082 46.0350326, 7.0984278 46.0349736, 7.0984669 46.0349345, 7.0985011 46.0348693, 7.0985715 46.034802, 7.098591 46.0347844, 7.098706 46.0347118, 7.0987416 46.0346799, 7.0988072 46.0346144, 7.0988497 46.0345785, 7.0989026 46.034557, 7.0997625 46.0344467, 7.1049369 46.0338222, 7.1105681 46.0307846, 7.1127353 46.0302781, 7.1165334 46.02817, 7.1226506 46.0263111, 7.1224986 46.0245869, 7.122858 46.0218901, 7.1256597 46.019023, 7.1282358 46.0179884, 7.1294729 46.0164519, 7.1294943 46.0162811, 7.1295362 46.016177, 7.1297006 46.0160776, 7.1298061 46.0159558, 7.1298372 46.0158251, 7.1298158 46.0155787, 7.1297807 46.0153151, 7.1297602 46.0151971, 7.1296466 46.0149653, 7.1294304 46.0148279, 7.1293116 46.0147237, 7.1292356 46.0146308, 7.1291996 46.014535, 7.1290866 46.0143363, 7.1288957 46.0141432, 7.1287562 46.0139979, 7.128728 46.0139327, 7.1287186 46.0138787, 7.1287407 46.0136782, 7.1288777 46.0134664, 7.1289764 46.0133146, 7.1290286 46.0132221, 7.1290425 46.0130524, 7.1290028 46.012898, 7.1289392 46.0127473, 7.1289499 46.0126745, 7.1290121 46.0124979, 7.1290355 46.0124199, 7.1291318 46.0123328, 7.1291463 46.0122965, 7.1290943 46.012199, 7.1290943 46.0120689, 7.1291547 46.0119371, 7.1291867 46.0118526, 7.1291804 46.0117918, 7.1291175 46.0117334, 7.1290108 46.0116942, 7.128921 46.0114617, 7.1290294 46.0112547, 7.1292025 46.011011, 7.1292181 46.0107836, 7.1292063 46.0106218, 7.1291739 46.0104281, 7.1290299 46.0101994, 7.1288396 46.0099507, 7.1285452 46.0095929, 7.1282917 46.009296, 7.1283418 46.0088422, 7.1281847 46.0086141, 7.1279886 46.008469, 7.1278122 46.0083807, 7.1277066 46.0083058, 7.1276352 46.0081199, 7.1276338 46.0080426, 7.1276512 46.0079866, 7.1277036 46.0078805, 7.1277539 46.0078279, 7.1277787 46.0077883, 7.1277733 46.0077157, 7.1276848 46.0076244, 7.1274651 46.0074843, 7.127194 46.0073747, 7.1269419 46.0071902, 7.1264496 46.0069053, 7.1261623 46.0068244, 7.1255449 46.0064353, 7.1252887 46.0061009, 7.1249773 46.0057735, 7.124794 46.0055812, 7.1247114 46.0054779, 7.1247505 46.0052365, 7.1247941 46.0051107, 7.1248498 46.0050066, 7.1251377 46.0047259, 7.1252686 46.0046277, 7.1255578 46.0044519, 7.1256447 46.0043968, 7.1257801 46.0041666, 7.1259157 46.003926, 7.1261039 46.0036556, 7.1261781 46.0035122, 7.126233 46.0034091, 7.1262233 46.0032378, 7.1261477 46.0031058, 7.1261003 46.0030089, 7.1261097 46.0029081, 7.1261291 46.0028484, 7.1261837 46.0027556, 7.1262692 46.0025717, 7.1263535 46.0023559, 7.1265667 46.0020978, 7.1267478 46.0019031, 7.1267889 46.0018144, 7.1268021 46.0017172, 7.1267572 46.001333, 7.1267165 46.0012629, 7.1266593 46.0012081, 7.1265775 46.0011048, 7.1265252 46.0009278, 7.1265533 46.0007639, 7.1265345 46.000612, 7.1264912 46.0005465, 7.1263947 46.0004469, 7.1263387 46.0002422, 7.1263856 45.9998155, 7.1263655 45.9995528, 7.126341 45.9994081, 7.1263142 45.999369, 7.126286 45.9993382, 7.1262525 45.9993019, 7.126227 45.999259, 7.1262149 45.9992218, 7.1262069 45.9991808, 7.1262096 45.9991407, 7.126219 45.9991007, 7.1262337 45.9990597, 7.1262565 45.9990261, 7.1262673 45.9989833, 7.1262525 45.9989488, 7.1262471 45.9989181, 7.1262512 45.9988874, 7.1262498 45.998851, 7.1262417 45.9987913, 7.1262404 45.998742, 7.1262432 45.9986889, 7.1262431 45.9986255, 7.1262458 45.9985519, 7.1262767 45.9984569, 7.1263303 45.9983628, 7.126404 45.9982594, 7.1264577 45.9982063, 7.1265086 45.9981802, 7.126569 45.9981476, 7.1266253 45.9981112, 7.126679 45.9980768, 7.1267166 45.9980442, 7.1267407 45.9980265, 7.1267822 45.9980013, 7.1268278 45.9979706, 7.1268667 45.9979482, 7.1269069 45.9979156, 7.1269338 45.9978775, 7.1269539 45.9978299, 7.1269767 45.9977964, 7.1270049 45.99776, 7.1270491 45.9977005, 7.1271135 45.9976399, 7.1271738 45.9975905, 7.1272288 45.9975448, 7.1272946 45.9974927, 7.1273428 45.9974442, 7.1273817 45.997379, 7.1274152 45.9973157, 7.1274273 45.9972244, 7.1274152 45.9971321, 7.1273777 45.9970799, 7.1272825 45.9970212, 7.1271873 45.9969579, 7.1271121 45.9969094, 7.1270505 45.9968806, 7.1270129 45.9968591, 7.1270062 45.9968424, 7.1270062 45.99682, 7.1270169 45.9967837, 7.1270022 45.996752, 7.12697 45.9967175, 7.1269123 45.9966709, 7.1268868 45.9966421, 7.1268842 45.9966113, 7.1268788 45.9965573, 7.1268895 45.996506, 7.1269123 45.9964408, 7.1269459 45.9963355, 7.1270008 45.9961939, 7.1270411 45.9961706, 7.127092 45.9961492, 7.1271725 45.9961231, 7.1272503 45.996097, 7.1272852 45.9960654, 7.1273401 45.9959936, 7.1273737 45.995934, 7.12743 45.9958334, 7.1274582 45.9957654, 7.1274702 45.9956983, 7.1274675 45.995593, 7.1274689 45.9955473, 7.1274573 45.9955042, 7.1272587 45.9952798, 7.1272322 45.9951532, 7.1271999 45.9950075, 7.1270775 45.9947511, 7.1269356 45.9945704, 7.1268718 45.9944652, 7.126871 45.9944038, 7.1268573 45.9943455, 7.1265096 45.9941639, 7.1262773 45.9939896, 7.1261934 45.9937121, 7.1262515 45.9935443, 7.1262773 45.9933718, 7.1262386 45.9932539, 7.1261095 45.9930022, 7.1260579 45.992828, 7.1259615 45.9926871, 7.1257675 45.9925569, 7.1255463 45.992473, 7.1255107 45.9924467, 7.1255073 45.9924018, 7.1255481 45.9922343, 7.1255739 45.9919503, 7.1256062 45.9915696, 7.1256191 45.9913437, 7.1257159 45.9911501, 7.1258449 45.99095, 7.1258724 45.9906403, 7.1258336 45.9902337, 7.1257304 45.9899626, 7.1257247 45.9895941, 7.1258418 45.9893559, 7.1260058 45.9892758, 7.1259937 45.9891891, 7.1258434 45.9890547, 7.125476 45.9889525, 7.1250438 45.9888229, 7.1249043 45.9885751, 7.1247559 45.9883106, 7.1247217 45.9879169, 7.1247224 45.9874283, 7.124645 45.9872238, 7.1248108 45.9870627, 7.1249717 45.9869696, 7.1251058 45.9868062, 7.1252775 45.986731, 7.1254224 45.9866621, 7.1254814 45.9866006, 7.1254755 45.9865545, 7.1254187 45.9864325, 7.1252828 45.9863534, 7.1249851 45.9863658, 7.1247853 45.9863541, 7.1245513 45.9863422, 7.124487 45.9862033, 7.1247128 45.9859371, 7.1251646 45.985566, 7.1251968 45.9854047, 7.1251404 45.9851304, 7.1246241 45.9846867, 7.1245112 45.9844851, 7.1244628 45.984122, 7.1243418 45.9837026, 7.1240786 45.9835115, 7.1241636 45.9832193, 7.1241754 45.983103, 7.124128 45.9829495, 7.1238259 45.9825337, 7.1237079 45.9824114, 7.1236695 45.9823039, 7.1236479 45.982089, 7.1237513 45.9818643, 7.1239001 45.9816747, 7.1243311 45.9814273, 7.1247047 45.9811488, 7.1248287 45.9809681, 7.124749 45.980553, 7.1245681 45.9803313, 7.1242868 45.9801585, 7.1235394 45.9796072, 7.1224445 45.9790853, 7.1213905 45.9786862, 7.1201216 45.9780313, 7.1190165 45.9775401, 7.118556 45.9769773, 7.1178295 45.9765169, 7.1171848 45.9763225, 7.1162332 45.9755857, 7.1155783 45.9750024, 7.1151485 45.9746954, 7.1146164 45.9744396, 7.1142741 45.9740537, 7.1136879 45.9737292, 7.1133424 45.9733942, 7.1132587 45.9727557, 7.1130075 45.9722428, 7.11284 45.9717717, 7.1126306 45.97151, 7.1119398 45.9710809, 7.11172 45.9706936, 7.1112698 45.9702225, 7.111071 45.9698352, 7.1111338 45.9694061, 7.1114164 45.9688931, 7.1116467 45.9685477, 7.1115525 45.9680767, 7.1114373 45.9678359, 7.1110937 45.9675934, 7.1105106 45.9673833, 7.1101573 45.9671544, 7.1098364 45.9669296, 7.1095341 45.9664589, 7.1095092 45.9660459, 7.1097071 45.9655895, 7.109933 45.9650244, 7.1096117 45.9644783, 7.1096387 45.9640808, 7.1095745 45.9639188, 7.1096187 45.9635785, 7.1096514 45.9634117, 7.1097145 45.9631501, 7.1099116 45.9627651, 7.1096439 45.9621654, 7.1092155 45.9614587, 7.1090399 45.960864, 7.108912 45.9603232, 7.1089234 45.9600626, 7.1089174 45.959885, 7.1087806 45.9596407, 7.1086062 45.9595801, 7.108562 45.9595167, 7.1084868 45.9594705, 7.108212 45.9594729, 7.1080062 45.9594426, 7.1075242 45.9593002, 7.1072504 45.9590811, 7.1067948 45.9588185, 7.1064179 45.9586497, 7.1063971 45.9582848, 7.1061832 45.9580559, 7.106313 45.9578758, 7.1062848 45.9577658, 7.1060859 45.9575793, 7.1060126 45.9575034, 7.1060172 45.9573957, 7.1059133 45.9573057, 7.1057904 45.9572316, 7.1056578 45.9569733, 7.1057139 45.9566717, 7.1056797 45.956327, 7.1054759 45.9561126, 7.1049391 45.9557512, 7.1043476 45.9551158, 7.1040628 45.9543381, 7.1041176 45.9538561, 7.1039752 45.9533194, 7.1035699 45.9528046, 7.1032405 45.9525297, 7.1032612 45.9522091, 7.1032619 45.9519777, 7.1027752 45.9516085, 7.1027416 45.9512989, 7.1028874 45.9510948, 7.1028031 45.9503947, 7.1024964 45.9498142, 7.1019816 45.949376, 7.1016639 45.949135, 7.10116 45.9488502, 7.1006671 45.9483244, 7.1003007 45.947715, 7.1001774 45.9468521, 7.0998637 45.9463703, 7.0995836 45.9458773, 7.0993034 45.945698, 7.0991262 45.9453636, 7.0989374 45.9451576, 7.0987743 45.9449797, 7.0985045 45.9446747, 7.0982594 45.9444294, 7.0981148 45.9441886, 7.0980132 45.9440354, 7.0977531 45.9437902, 7.0974858 45.9436002, 7.0972773 45.943386, 7.0970169 45.9431208, 7.0968839 45.9429827, 7.0967527 45.9427566, 7.0965901 45.9425879, 7.0964995 45.9424693, 7.0964812 45.9423938, 7.096486 45.9422568, 7.0966647 45.9419918, 7.0966915 45.9418689, 7.0966655 45.9417527, 7.0966287 45.9416738, 7.0965114 45.9414108, 7.0963765 45.9406747, 7.0963275 45.9405831, 7.0963008 45.9404858, 7.0963233 45.9404073, 7.0963821 45.9403282, 7.0965993 45.9401944, 7.0969538 45.9399997, 7.0970221 45.9399188, 7.0970448 45.9398416, 7.0970258 45.9397506, 7.0969642 45.9396777, 7.0967265 45.9394844, 7.0966447 45.9393999, 7.0965979 45.9392976, 7.0965845 45.9391683, 7.0967598 45.9384781, 7.0968376 45.9377938, 7.0968116 45.9375855, 7.0967101 45.9373473, 7.0965631 45.9371208, 7.0965708 45.9369848, 7.0965534 45.9368851, 7.0965185 45.9368299, 7.0964787 45.9367755, 7.0964222 45.9365576, 7.0963856 45.9364033, 7.0963719 45.9363276, 7.096311 45.9361849, 7.0969658 45.9356364, 7.097066 45.9353699, 7.0970837 45.9349697, 7.0969751 45.9346156, 7.096936 45.9343296, 7.0968738 45.9341977, 7.0968706 45.9339652, 7.0969483 45.9338389, 7.0970187 45.9337651, 7.0973358 45.9335546, 7.0974104 45.9334358, 7.0974564 45.9333257, 7.0975122 45.9331544, 7.0975626 45.9330793, 7.0976605 45.9330305, 7.0978687 45.9329009, 7.0980225 45.9326053, 7.098106 45.9323873, 7.0981297 45.9322366, 7.0981175 45.9320781, 7.0980724 45.9319431, 7.097945 45.9317716, 7.0978064 45.9316457, 7.0976746 45.9315424, 7.0974533 45.9313936, 7.0972742 45.9310967, 7.0971474 45.930998, 7.0967859 45.9307877, 7.0964012 45.9305737, 7.0963453 45.9304466, 7.096201 45.9302711, 7.0960059 45.9301014, 7.0956286 45.9299149, 7.0954317 45.9297125, 7.0952908 45.9295236, 7.0952263 45.9294043, 7.0951171 45.9291641, 7.0950758 45.9289342, 7.0950906 45.9286674, 7.0950346 45.9283967, 7.0949755 45.9283957, 7.0948016 45.9283928, 7.0945275 45.928407, 7.0940933 45.9283249, 7.0931612 45.9280717, 7.0917803 45.9277265, 7.0908482 45.9271051, 7.0905921 45.9268191, 7.0900069 45.9262242, 7.0894702 45.9255802, 7.0892436 45.9252343, 7.0890647 45.9246619, 7.0888978 45.9241967, 7.0885638 45.9239821, 7.087237 45.9230905, 7.0862376 45.922328, 7.0858346 45.9215655, 7.0858023 45.9211057, 7.0855444 45.9207357, 7.0852543 45.9203768, 7.0851092 45.9200516, 7.085413 45.9194244, 7.0853275 45.9192049, 7.0850701 45.9187039, 7.0844337 45.9182341, 7.0839839 45.9181728, 7.0837551 45.91782, 7.083207 45.9173153, 7.0828201 45.9166537, 7.0823688 45.9160929, 7.0822721 45.9157901, 7.0820416 45.9156896, 7.0819901 45.9155303, 7.0818927 45.915375, 7.0817782 45.9151639, 7.0816351 45.9149846, 7.0815836 45.9148293, 7.0816866 45.9146779, 7.0818985 45.9145823, 7.0819786 45.9144389, 7.0821046 45.9142239, 7.0820874 45.9140685, 7.0820588 45.9139331, 7.0820473 45.9138096, 7.08195 45.9136662, 7.0816981 45.9135985, 7.0818641 45.9133635, 7.0820171 45.9131236, 7.0818594 45.9129566, 7.081781 45.9129201, 7.0811599 45.9126306, 7.0807305 45.9125031, 7.0802553 45.9124792, 7.0797973 45.9123597, 7.0793622 45.9123239, 7.0782852 45.9116304, 7.0776844 45.9103165, 7.0772123 45.9089579, 7.0766973 45.9076291, 7.0765257 45.9070468, 7.0757532 45.9064645, 7.075367 45.9057179, 7.0749163 45.9052252, 7.0727706 45.9026122, 7.0713115 45.9014475, 7.0692837 45.8993345, 7.068298 45.8985011, 7.0667939 45.894878, 7.0666218 45.8946006, 7.0664997 45.8943763, 7.0663587 45.8940464, 7.0660321 45.8935917, 7.0658976 45.8933019, 7.0658015 45.8931013, 7.0656029 45.8929052, 7.0654364 45.8928116, 7.0654236 45.8925976, 7.0653787 45.8923836, 7.0652314 45.8921518, 7.0651225 45.8919957, 7.0650136 45.8917238, 7.0648279 45.8915499, 7.0648087 45.8913315, 7.0651097 45.8910016, 7.0651782 45.8909347, 7.0654108 45.8907073, 7.0655837 45.8904577, 7.0657887 45.8901679, 7.0659936 45.8898825, 7.0662434 45.889624, 7.0664548 45.8894189, 7.0665957 45.8892628, 7.0666406 45.8891023, 7.0664932 45.888924, 7.0662657 45.8888183, 7.065849 45.8886386, 7.0656588 45.8884968, 7.0655455 45.8883423, 7.0653236 45.8881784, 7.0651515 45.8881342, 7.0648979 45.8880176, 7.0646624 45.8878789, 7.0644223 45.8877118, 7.0642502 45.8876235, 7.0641641 45.8875605, 7.0639966 45.8875479, 7.0638154 45.88751, 7.0637203 45.8874501, 7.0636525 45.8873089, 7.0635693 45.8868192, 7.0634542 45.8866723, 7.0634798 45.8865344, 7.0633391 45.8864008, 7.0633841 45.8861684, 7.0631797 45.8857827, 7.0628697 45.8856817, 7.0624213 45.8853466, 7.0619266 45.8850345, 7.0618547 45.8848743, 7.0617618 45.8846672, 7.0612935 45.8844927, 7.060911 45.8839372, 7.0607725 45.8836526, 7.0604116 45.8831373, 7.0600987 45.8830947, 7.0597791 45.8826591, 7.0596362 45.8820058, 7.0594594 45.881485, 7.059371 45.8812482, 7.0590581 45.8811157, 7.0588609 45.8809547, 7.058412 45.8808127, 7.0578787 45.8805008, 7.057514 45.8799979, 7.0576472 45.8795877, 7.0574088 45.8794266, 7.0571072 45.8787528, 7.056469 45.8782206, 7.0563299 45.8779303, 7.0561563 45.8778347, 7.055744 45.8777289, 7.0554475 45.8774268, 7.0551871 45.8773211, 7.0549918 45.8769082, 7.0548978 45.8760622, 7.0549053 45.8758316, 7.0546157 45.8756795, 7.0542324 45.8752112, 7.0539899 45.8750469, 7.0533908 45.8744458, 7.0520429 45.873495, 7.0510562 45.8728387, 7.0506637 45.8725088, 7.0503556 45.8721193, 7.049993 45.8713592, 7.0498573 45.871177, 7.049684 45.8709636, 7.0493549 45.870749, 7.049161 45.8706629, 7.0489499 45.8704926, 7.0488108 45.8704258, 7.0485326 45.8703489, 7.0481833 45.8701898, 7.0479185 45.870085, 7.0476372 45.8699566, 7.0475251 45.8698245, 7.0474868 45.8696437, 7.0472362 45.8693783, 7.0468825 45.8689244, 7.046481 45.8687884, 7.0461275 45.8686186, 7.0455059 45.8683177, 7.0441315 45.8680478, 7.0435853 45.8681766, 7.0428364 45.8679926, 7.0420964 45.8675018, 7.0410541 45.8672786, 7.0408542 45.8667964, 7.0406604 45.8664958, 7.040123 45.8662872, 7.0393605 45.8662035, 7.0389424 45.8658639, 7.0380526 45.8654958, 7.0375152 45.8649866, 7.0373161 45.8646939, 7.0370394 45.8642872, 7.0367135 45.8635694, 7.0360792 45.8628516, 7.0354873 45.8622259, 7.0353567 45.8620798, 7.0352598 45.8618516, 7.035252 45.8615466, 7.0351029 45.8613652, 7.0348737 45.8611823, 7.0346664 45.8609426, 7.0346798 45.8606876, 7.0347113 45.86016, 7.0345984 45.8596423, 7.0344651 45.859437, 7.0343732 45.8592314, 7.0342621 45.858999, 7.0342725 45.8589171, 7.0342833 45.858857, 7.0342002 45.8587945, 7.0340668 45.8587707, 7.0340253 45.8586997, 7.0339852 45.8585979, 7.0339534 45.8584674, 7.0339232 45.8583395, 7.0338476 45.8581917, 7.033674 45.8580108, 7.0334939 45.8579278, 7.0333954 45.8578058, 7.0332478 45.8576607, 7.033097 45.8576151, 7.0330811 45.857455, 7.0329604 45.8572868, 7.0327424 45.8570495, 7.0325071 45.8569463, 7.0321763 45.8566978, 7.0319325 45.8566127, 7.031673 45.8566205, 7.0314931 45.8565467, 7.0313087 45.8562619, 7.0311367 45.8562744, 7.0308731 45.8561335, 7.0307755 45.8559247, 7.030335 45.8556301, 7.0301102 45.8554635, 7.0300267 45.8552129, 7.0297614 45.8550635, 7.0295513 45.8550866, 7.0294007 45.8550224, 7.0293005 45.8548871, 7.029084 45.8546852, 7.0287087 45.854506, 7.0284113 45.8544178, 7.0281525 45.8544388, 7.0279311 45.8544121, 7.0277224 45.8543196, 7.0274801 45.8541846, 7.0273409 45.8540719, 7.027037 45.8540309, 7.0267758 45.8540839, 7.0265772 45.85412, 7.0263824 45.8539631, 7.0259122 45.8538668, 7.0256005 45.8538494, 7.0254605 45.8538416, 7.0252303 45.8537385, 7.0247318 45.8531144, 7.0246261 45.8527339, 7.0240447 45.8524516, 7.0237539 45.8522001, 7.0234632 45.851881, 7.022776 45.8515496, 7.0219743 45.8511385, 7.0214721 45.8508439, 7.0205999 45.8505555, 7.0200777 45.8501126, 7.0196517 45.8496936, 7.0184729 45.8490364, 7.0181495 45.8489093, 7.0176107 45.8486974, 7.0166205 45.8483645, 7.0162278 45.8481623, 7.0161062 45.8480165, 7.0160043 45.8477923, 7.016015 45.8476279, 7.0160472 45.8473925, 7.0160606 45.8470188, 7.0161089 45.8466918, 7.0160982 45.8464022, 7.0159346 45.8459202, 7.0157066 45.8456698, 7.0154276 45.845425, 7.015205 45.845128, 7.0150709 45.8450439, 7.0148402 45.8449766, 7.0146552 45.8448907, 7.0145184 45.8447618, 7.0144889 45.8446571, 7.0144862 45.8444927, 7.0144755 45.8444366, 7.0143735 45.844304, 7.0142341 45.8441807, 7.0141536 45.8440723, 7.013998 45.8439845, 7.0138049 45.8439415, 7.0136091 45.8438724, 7.0134338 45.8437799, 7.0133758 45.8436893, 7.0133436 45.843536, 7.0133489 45.843323, 7.0132846 45.8431549, 7.0131263 45.8430017, 7.0128688 45.8429531, 7.0127749 45.8429138, 7.0127186 45.842798, 7.0126891 45.8426111, 7.0126328 45.8425084, 7.0124799 45.8423495, 7.0122439 45.8421739, 7.0118764 45.8419833, 7.0116243 45.8419347, 7.0114124 45.8419179, 7.0110074 45.8418918, 7.0106828 45.8418394, 7.0103878 45.8417404, 7.0098942 45.8414003, 7.0095429 45.8411929, 7.0094383 45.8411533, 7.0089555 45.8409706, 7.0086749 45.8408231, 7.0078622 45.8401404, 7.007327 45.8399321, 7.0070171 45.8391532, 7.006522 45.8387072, 7.0062921 45.8385894, 7.0054891 45.8381779, 7.004422 45.8378032, 7.0033465 45.8374285, 7.0028855 45.8371074, 7.0023221 45.8366137, 7.0018782 45.8363699, 7.0007685 45.8360012, 6.9999234 45.8357276, 6.9993566 45.8355365, 6.9993175 45.8353767, 6.9993173 45.8350352, 6.9993173 45.8349306, 6.999152 45.8347646, 6.9989588 45.8347641, 6.9985832 45.8348711, 6.9984995 45.8348604, 6.9980283 45.8347998, 6.9974513 45.8344583, 6.9968464 45.8340273, 6.9962837 45.8338916, 6.9955954 45.8339255, 6.9949211 45.8339314, 6.9941443 45.833521, 6.9936235 45.8331999, 6.9934379 45.8331017, 6.992915 45.8328251, 6.9917968 45.8323077, 6.9902346 45.8315583, 6.9893212 45.8311835, 6.9877505 45.8306661, 6.9875061 45.8304234, 6.9870676 45.829988, 6.986214 45.8294289, 6.9850189 45.8290363, 6.9840287 45.8286318, 6.9834738 45.8283404, 6.9826031 45.8282392, 6.9821165 45.8282749, 6.9815531 45.8277753, 6.9807592 45.8274184, 6.9798629 45.8269723, 6.9790537 45.826687, 6.9787692 45.8264341, 6.9785633 45.8260616, 6.9782249 45.8258429, 6.9777884 45.8256584, 6.9772882 45.8257199, 6.976783 45.8257233, 6.9765329 45.8253577, 6.9760327 45.8251663, 6.9756845 45.8248314, 6.9753276 45.8246627, 6.9748371 45.8245004, 6.9744693 45.8242825, 6.9741077 45.8241202, 6.9738134 45.8240091, 6.9734456 45.8239835, 6.9730839 45.824039, 6.9728545 45.8241743, 6.9726553 45.8241582, 6.9724637 45.8239981, 6.9722185 45.82395, 6.9720116 45.8240354, 6.9717128 45.823934, 6.9716132 45.8237257, 6.97123 45.8236456, 6.9709235 45.8233893, 6.9707243 45.8229674, 6.9705097 45.8226097, 6.9704791 45.8222679, 6.9704101 45.8219902, 6.9701573 45.8216858, 6.9700117 45.8214135, 6.9697435 45.8211732, 6.9691961 45.8210061, 6.9686707 45.8208367, 6.9683335 45.8204149, 6.9680116 45.820088, 6.9676161 45.819909, 6.9670692 45.8195551, 6.9669163 45.8192927, 6.9666554 45.8188448, 6.9663276 45.8182715, 6.9661808 45.8178419, 6.9660103 45.8176208, 6.9656964 45.8168469, 6.9653116 45.8161418, 6.9647595 45.8148698, 6.9645879 45.8138105, 6.9639607 45.8127535, 6.9637114 45.8123334, 6.9634129 45.8114381, 6.9623312 45.8097748, 6.9618885 45.8091648, 6.9616605 45.8089221, 6.9614739 45.8088006, 6.9614346 45.8087791, 6.9613807 45.8087225, 6.9613623 45.8088816, 6.9613321 45.8089971, 6.9612903 45.8092058, 6.9611202 45.8095486, 6.9603357 45.8097906, 6.9599089 45.8105293, 6.9594315 45.8109953, 6.95815 45.811828, 6.957392 45.812252, 6.9567686 45.8127298, 6.95598 45.8130925, 6.9553612 45.8133978, 6.9552001 45.8134773, 6.9532061 45.8143178, 6.9524889 45.8148165, 6.9524021 45.8148384, 6.951482 45.8150708, 6.9511464 45.8151188, 6.9506457 45.8151904, 6.9497536 45.8150637, 6.9490778 45.8146306, 6.9486378 45.8145709, 6.9478101 45.8143534, 6.9474681 45.8143433, 6.9472378 45.8142979, 6.9469906 45.8141715, 6.9465673 45.8141184, 6.9457498 45.8137578, 6.9453582 45.813511, 6.9449076 45.813526, 6.9446093 45.8134155, 6.9444033 45.8132343, 6.9435074 45.8130623, 6.9430482 45.8128845, 6.9423562 45.8126602, 6.9419753 45.8126116, 6.9418681 45.8125443, 6.9418156 45.8123605, 6.941467 45.8120868, 6.9410222 45.8117847, 6.9406388 45.8116402, 6.9402471 45.811528, 6.9396839 45.8112551, 6.9392341 45.8108804, 6.9390669 45.8105857, 6.9388264 45.8103345, 6.938493 45.8101483, 6.9380861 45.8100353, 6.937995 45.8099381, 6.9378233 45.8098633, 6.9375167 45.8098379, 6.9368952 45.8100017, 6.9363753 45.8101416, 6.9357899 45.8102003, 6.9346683 45.8100829, 6.9340428 45.8097101, 6.9335326 45.8087772, 6.933435 45.8082179, 6.932559 45.8078135, 6.9316374 45.8073663, 6.9309293 45.8069399, 6.9301435 45.8065019, 6.9294894 45.8061424, 6.9288713 45.8057115, 6.9281977 45.805194, 6.9275436 45.8045604, 6.9268402 45.8040281, 6.9258103 45.8033999, 6.9249949 45.8029511, 6.9243726 45.8024874, 6.9235584 45.8019476, 6.9229576 45.8015287, 6.9220993 45.8011099, 6.9217601 45.800897, 6.921241 45.8005713, 6.9204685 45.8000328, 6.9193489 45.7995216, 6.9181781 45.7990201, 6.9170569 45.7984539, 6.9161079 45.7978423, 6.9153886 45.7975763, 6.9148527 45.7972088, 6.9142937 45.7970024, 6.9127675 45.7962394, 6.9118991 45.7958044, 6.9111668 45.7953546, 6.9107263 45.795074, 6.9101347 45.7944172, 6.909463 45.7938311, 6.9091385 45.7935262, 6.9087866 45.7932319, 6.908358 45.7929008, 6.9080231 45.7923131, 6.9077549 45.7920401, 6.9073098 45.7917789, 6.9071542 45.7916442, 6.907087 45.7913743, 6.9069212 45.7912654, 6.9068292 45.7910387, 6.9066568 45.7908827, 6.9063459 45.7906754, 6.9061779 45.7905969, 6.9058734 45.7904812, 6.9055582 45.7902946, 6.9051318 45.7900901, 6.9048339 45.789984, 6.9044039 45.7897297, 6.9038539 45.7892786, 6.9033069 45.7888786, 6.9031036 45.788689, 6.9029261 45.7887045, 6.9028016 45.7886903, 6.902774 45.7885962, 6.9028342 45.7884437, 6.9028152 45.78832, 6.9026989 45.7882449, 6.9026007 45.78812, 6.902587 45.7879001, 6.9024493 45.7878044, 6.9022733 45.7877609, 6.9022345 45.7876694, 6.9022194 45.7875068, 6.9020638 45.7872757, 6.9018425 45.7871272, 6.9016109 45.7870838, 6.9012297 45.7870682, 6.9010329 45.7869605, 6.9007789 45.7867077, 6.9005148 45.7866296, 6.900176 45.7864698, 6.8996878 45.7860112, 6.8996394 45.7859047, 6.899775 45.7857489, 6.8997093 45.7856427, 6.8993963 45.7851365, 6.8993341 45.7848013, 6.8994362 45.7846189, 6.8994412 45.7844399, 6.8992921 45.7842048, 6.8992793 45.7841846, 6.8986515 45.7840378, 6.8985651 45.7840391, 6.8983028 45.784043, 6.8980038 45.7839457, 6.8976875 45.7838137, 6.8971968 45.7835271, 6.8967259 45.7833811, 6.8963946 45.7833377, 6.8961825 45.7832388, 6.896011 45.7831588, 6.8958093 45.7830094, 6.8956822 45.7828435, 6.895453 45.7824266, 6.8952513 45.7823588, 6.8948826 45.7818559, 6.8944765 45.7819011, 6.8942698 45.781835, 6.8939235 45.7815362, 6.8935001 45.7815606, 6.8929471 45.7814494, 6.8928022 45.7813774, 6.892409 45.7811818, 6.89213 45.7808657, 6.8919955 45.7808153, 6.8918161 45.7805999, 6.8912507 45.7803636, 6.8907026 45.7799119, 6.8903365 45.7798424, 6.8900699 45.7796982, 6.8897062 45.7794463, 6.8894472 45.7794463, 6.8887522 45.7793994, 6.8885337 45.7792907, 6.8879002 45.7789755, 6.8873522 45.7788243, 6.8869104 45.7785646, 6.8867892 45.7784934, 6.8863608 45.778582, 6.8862197 45.7785487, 6.8858302 45.7784569, 6.8851053 45.7781051, 6.8839121 45.7778462, 6.8830626 45.7776899, 6.8827488 45.777775, 6.8824997 45.7777819, 6.8821454 45.777874, 6.8818579 45.777874, 6.8815613 45.7779663, 6.8803886 45.7781143, 6.8798137 45.7780395, 6.8791406 45.7778748, 6.8788189 45.7776799, 6.8784059 45.7774611, 6.8779551 45.7773439, 6.8775549 45.7772399, 6.8770057 45.7769664, 6.8762553 45.7767754, 6.8758425 45.7767832, 6.8751108 45.7768408, 6.874653 45.7769271, 6.8740602 45.7768434, 6.8733472 45.7765686, 6.8727469 45.7763697, 6.8718463 45.7761734, 6.8708745 45.77604, 6.8705143 45.7757678, 6.8695424 45.7753909, 6.8691927 45.7754004, 6.8687566 45.7753342, 6.8578354 45.773226, 6.8516556 45.770035, 6.8511512 45.7699311, 6.8508564 45.7696423, 6.8506492 45.7694866, 6.8499842 45.769307, 6.8492012 45.7691181, 6.8488204 45.7687178, 6.8484557 45.7686917, 6.848327 45.7685289, 6.8479141 45.7684616, 6.8476674 45.7686561, 6.8470506 45.7686673, 6.8466216 45.7685476, 6.8463588 45.7686486, 6.8458868 45.7686037, 6.845549 45.7687235, 6.845061 45.7684578, 6.8446426 45.7684878, 6.8440044 45.7684092, 6.8438007 45.7681623, 6.8435003 45.7679715, 6.8433441 45.7679188, 6.8433019 45.7678406, 6.8433059 45.7676562, 6.8432536 45.7675001, 6.8431464 45.7674216, 6.8426905 45.767257, 6.8425564 45.7671073, 6.8427012 45.7668903, 6.8427141 45.7665959, 6.8424867 45.7662431, 6.8418164 45.7660037, 6.8410441 45.7653041, 6.8407285 45.7650615, 6.8404109 45.7649671, 6.8399946 45.7644607, 6.8390296 45.7637082, 6.8370576 45.7624209, 6.8365044 45.7619614, 6.8363092 45.7615781, 6.8359983 45.7613108, 6.8357645 45.761029, 6.835608 45.7605644, 6.8353767 45.7604131, 6.8352899 45.7602366, 6.8350297 45.7599289, 6.8347405 45.7598129, 6.8345598 45.7596717, 6.8345278 45.7595514, 6.8344358 45.7592061, 6.8343235 45.7590535, 6.8341481 45.7590103, 6.8335673 45.7586241, 6.8328899 45.7582595, 6.8324778 45.7580881, 6.8324017 45.7579086, 6.8320586 45.7575433, 6.8316218 45.757214, 6.8313284 45.7569154, 6.8310272 45.7567578, 6.8307067 45.7566935, 6.8302513 45.7562244, 6.82942 45.7561235, 6.82882 45.7555788, 6.8285308 45.7553569, 6.8282706 45.7552762, 6.8275043 45.7549685, 6.8271605 45.7547686, 6.8267951 45.7546982, 6.8265359 45.7545195, 6.8260022 45.7542676, 6.8255148 45.754231, 6.8250212 45.7540997, 6.824762 45.7541234, 6.8242221 45.7540083, 6.8237197 45.7537913, 6.823275 45.7535993, 6.8229511 45.753582, 6.822732 45.7534335, 6.8224544 45.7531558, 6.8221706 45.7530826, 6.8217386 45.7531838, 6.8211723 45.752943, 6.8210307 45.7528424, 6.8209126 45.7528567, 6.8205283 45.7527982, 6.820151 45.7527397, 6.8200252 45.7526276, 6.8197597 45.7525057, 6.8194872 45.7524911, 6.8192915 45.7524472, 6.8190819 45.7524569, 6.8188932 45.7523545, 6.8187954 45.7524472, 6.818474 45.7524374, 6.8182643 45.752296, 6.8179289 45.752257, 6.8174608 45.7521741, 6.8171673 45.7521351, 6.8168668 45.7520864, 6.8165384 45.7520766, 6.816196 45.7520425, 6.8157418 45.7519304, 6.8153156 45.7518962, 6.8147566 45.7517353, 6.8144491 45.7516671, 6.8123618 45.7512134, 6.8098454 45.7519426, 6.8081251 45.7515709, 6.8069697 45.7512284, 6.8062488 45.7512981, 6.8061646 45.751248, 6.8060879 45.7512273, 6.8060161 45.7511236, 6.8057833 45.7510631, 6.805714 45.7510269, 6.8056001 45.7509457, 6.805459 45.750804, 6.8051643 45.750652, 6.8050604 45.7505656, 6.8046642 45.7503134, 6.8044538 45.7502218, 6.8042136 45.7501838, 6.8039116 45.7500663, 6.8036268 45.7499022, 6.8035451 45.7498054, 6.8031713 45.7495636, 6.8030351 45.7494962, 6.8027405 45.7493873, 6.8025795 45.749358, 6.8023716 45.7492647, 6.8021908 45.7491506, 6.8021413 45.7491057, 6.8020918 45.7490193, 6.8018937 45.7489191, 6.8017699 45.7487049, 6.80151 45.7485511, 6.8013812 45.7484095, 6.8012426 45.7483646, 6.8010841 45.7483421, 6.8010272 45.7482954, 6.8009875 45.7482453, 6.8009752 45.7481901, 6.800839 45.7480467, 6.8007622 45.7480311, 6.8007251 45.7479775, 6.8007226 45.7479205, 6.8005889 45.7478601, 6.8005047 45.7478583, 6.8003537 45.7478151, 6.8002918 45.7477771, 6.8002893 45.7477218, 6.8002398 45.7476769, 6.8000244 45.7475974, 6.7999471 45.7475905, 6.7999396 45.7475353, 6.7998555 45.7475301, 6.7998035 45.7474247, 6.7998084 45.7473124, 6.7997688 45.7472657, 6.7996945 45.747245, 6.7993677 45.7472467, 6.7992934 45.7472243, 6.7992167 45.747245, 6.7989741 45.7472191, 6.7989146 45.7471793, 6.7987587 45.7471517, 6.7986893 45.7471223, 6.7986398 45.7470774, 6.7985512 45.7470577, 6.7985141 45.7470093, 6.798321 45.746904, 6.7982442 45.7468849, 6.7982021 45.7468366, 6.7981229 45.7468452, 6.7979644 45.74698, 6.7978877 45.7469955, 6.7978283 45.7469523, 6.797749 45.7469454, 6.7977119 45.746897, 6.7977094 45.7467882, 6.7976351 45.746764, 6.7975534 45.7467778, 6.7974816 45.7467485, 6.7974346 45.7467001, 6.7973603 45.7466759, 6.7971944 45.7466413, 6.7970459 45.7465809, 6.79688 45.7465774, 6.7966646 45.7465308, 6.7964145 45.7465394, 6.7963452 45.7465118, 6.7962957 45.7464651, 6.7962586 45.7463597, 6.7961868 45.746263, 6.7957535 45.7461005, 6.7955802 45.7459105, 6.7954465 45.7458552, 6.795288 45.7458276, 6.7952608 45.745774, 6.7952781 45.7457187, 6.7952335 45.7456738, 6.7951518 45.7456703, 6.7949934 45.7457118, 6.7948325 45.7456755, 6.7947507 45.7456772, 6.7946889 45.7455753, 6.7947186 45.7454647, 6.7945651 45.7453334, 6.7945552 45.7452799, 6.7945923 45.7452315, 6.7946022 45.7451192, 6.7946517 45.7449585, 6.7945725 45.74486, 6.7945502 45.744746, 6.794471 45.744644, 6.7944586 45.7445853, 6.794466 45.7445283, 6.794559 45.7444018, 6.794502 45.7442947, 6.7945912 45.7441979, 6.7945614 45.7440908, 6.7945714 45.7440338, 6.7946753 45.7438852, 6.794663 45.7438282, 6.7944253 45.7437746, 6.7942842 45.7437141, 6.7942297 45.7436675, 6.7942148 45.7436122, 6.794247 45.7435258, 6.7941752 45.7434239, 6.7940712 45.7433357, 6.7937023 45.7432131, 6.793628 45.7431128, 6.7935686 45.7430696, 6.7934943 45.7430472, 6.7934498 45.7429988, 6.7934498 45.7428848, 6.7934176 45.7428347, 6.7929274 45.7426705, 6.7928794 45.7426645, 6.7926823 45.7426204, 6.7924619 45.7425409, 6.7924025 45.7424372, 6.7923109 45.7423439, 6.7921623 45.7423025, 6.7921054 45.7421331, 6.7920509 45.7420917, 6.7919742 45.7420692, 6.7918132 45.7420537, 6.7916473 45.742064, 6.7914864 45.7420951, 6.7913255 45.7420709, 6.7911918 45.7420917, 6.7910407 45.7421366, 6.7908625 45.7421383, 6.7907783 45.742128, 6.790709 45.7421003, 6.7905995 45.7420196, 6.7904681 45.7419485, 6.7903554 45.741927, 6.79022 45.7419223, 6.7901248 45.7419242, 6.7900939 45.7419354, 6.7900443 45.7419607, 6.7900242 45.7419654, 6.7900014 45.7419644, 6.7899464 45.7419476, 6.7899249 45.7419457, 6.7898619 45.7419766, 6.789823 45.741985, 6.7897908 45.7419813, 6.7895722 45.7420468, 6.7894381 45.7420618, 6.7892222 45.742087, 6.7891565 45.7420786, 6.7890827 45.7420674, 6.7890197 45.7420702, 6.7889701 45.7420833, 6.7889057 45.7421039, 6.7888896 45.7421039, 6.7888601 45.7420926, 6.7886938 45.7419953, 6.7885999 45.7419728, 6.7885637 45.7419541, 6.7885007 45.7419204, 6.7884256 45.7419008, 6.7883773 45.7418989, 6.788317 45.7419101, 6.7882566 45.7419045, 6.7881654 45.7418849, 6.7880501 45.7418362, 6.7879763 45.7418016, 6.7879026 45.7418044, 6.7878503 45.7418119, 6.7878033 45.7418034, 6.7877765 45.7418072, 6.787688 45.7418418, 6.7875633 45.7418512, 6.7874198 45.7418409, 6.7873044 45.741824, 6.7872374 45.7418072, 6.7871878 45.7418119, 6.7871274 45.7418259, 6.7870671 45.7418184, 6.7870134 45.7418081, 6.7869169 45.7418147, 6.7867948 45.7418044, 6.7867358 45.7417885, 6.7866473 45.7417529, 6.7866191 45.741737, 6.7865869 45.7417314, 6.7865373 45.7417286, 6.7865011 45.7417342, 6.7864488 45.7417492, 6.7863683 45.7417791, 6.7863187 45.7417847, 6.7862141 45.7417697, 6.7861618 45.7417735, 6.7860009 45.7418194, 6.7859258 45.7418296, 6.785848 45.7418371, 6.7857635 45.7418568, 6.7857125 45.7418512, 6.7856361 45.7418661, 6.7855892 45.7418652, 6.7855234 45.7418549, 6.7854497 45.7418549, 6.7853867 45.7418381, 6.7852914 45.7418081, 6.7852512 45.7417829, 6.7852539 45.7417492, 6.7852177 45.7417286, 6.7851694 45.7417276, 6.7851385 45.7417398, 6.7850447 45.7417791, 6.7850058 45.741781, 6.7849521 45.7417744, 6.7848422 45.7417248, 6.7847644 45.7417033, 6.7847309 45.7417089, 6.7846826 45.7417379, 6.7846423 45.7417342, 6.7846195 45.7417229, 6.7845659 45.7416799, 6.7844774 45.7416584, 6.7843392 45.7416518, 6.7841931 45.7416265, 6.7840952 45.7416219, 6.7840429 45.741634, 6.783957 45.7416584, 6.7839248 45.7416574, 6.7838779 45.7416499, 6.7838323 45.7416499, 6.7836714 45.7417005, 6.7835467 45.7417548, 6.7832771 45.7418568, 6.7830035 45.7419607, 6.7829686 45.7419831, 6.7829378 45.7419841, 6.7828788 45.7419775, 6.7826548 45.7419223, 6.7824602 45.7418581, 6.7824371 45.7416972, 6.7823181 45.7416142, 6.7822176 45.7415077, 6.7821481 45.7413824, 6.7821642 45.7412214, 6.7821964 45.7411091, 6.7821181 45.7410305, 6.7817136 45.7409032, 6.7815065 45.7407647, 6.7813596 45.7406037, 6.781351 45.7404502, 6.7814561 45.7403716, 6.7814829 45.7402106, 6.7812437 45.7399934, 6.7811847 45.7398886, 6.781292 45.7397501, 6.7813005 45.739503, 6.781204 45.7392596, 6.7811342 45.7391847, 6.7810214 45.7390854, 6.7808633 45.7390331, 6.7808416 45.7389618, 6.780858 45.7388927, 6.7808068 45.7387634, 6.7807212 45.7386513, 6.78038 45.7385557, 6.7802089 45.7384734, 6.7801095 45.7383893, 6.7800614 45.7383423, 6.7794606 45.7381963, 6.7793503 45.73814, 6.7792428 45.7380428, 6.7791197 45.7379229, 6.7789563 45.7378275, 6.778779 45.7377937, 6.7786559 45.7377396, 6.7785913 45.7376477, 6.7785561 45.7374999, 6.7785862 45.7373689, 6.7785457 45.7372714, 6.7784703 45.7371704, 6.7783502 45.737103, 6.7781865 45.7368933, 6.7780626 45.7367024, 6.7780039 45.736633, 6.7778963 45.7365602, 6.7777812 45.7365338, 6.7776715 45.7364591, 6.77751 45.7363392, 6.7773601 45.7362755, 6.777245 45.7361895, 6.777218 45.7360752, 6.7771721 45.7359798, 6.7770597 45.735931, 6.7769095 45.7358861, 6.7766323 45.7358596, 6.7764645 45.7358188, 6.7763999 45.7357513, 6.7764001 45.7356784, 6.7764321 45.7356296, 6.7764645 45.7355586, 6.7763785 45.7354424, 6.7762472 45.7353395, 6.7760353 45.7352516, 6.7759708 45.7352009, 6.7759708 45.7351559, 6.7759361 45.7351074, 6.7758527 45.7349968, 6.7758176 45.7348846, 6.7757454 45.7347235, 6.7756572 45.7346244, 6.7756328 45.7345344, 6.7756513 45.7344484, 6.7757401 45.7343753, 6.7757934 45.7342837, 6.7757669 45.7342367, 6.775713 45.7341901, 6.7754426 45.7341451, 6.7752653 45.7340701, 6.77515 45.734057, 6.7750642 45.7340158, 6.7749625 45.7339261, 6.7746919 45.7338531, 6.7745757 45.7338081, 6.7744154 45.7336827, 6.7741814 45.7335592, 6.7739242 45.7334991, 6.7737228 45.7334038, 6.7735407 45.7332164, 6.7733692 45.7329413, 6.7732832 45.7329037, 6.7731144 45.7327579, 6.7730659 45.7326678, 6.7728033 45.7323628, 6.7727658 45.7321232, 6.7724729 45.7319022, 6.7722186 45.7317413, 6.7721862 45.7316774, 6.7721862 45.7315969, 6.7721459 45.7314996, 6.7721567 45.7314135, 6.7721218 45.7313273, 6.7721295 45.731232, 6.7720598 45.7310859, 6.771993 45.7310296, 6.7718967 45.7309961, 6.7714995 45.730951, 6.7712021 45.7309006, 6.7710165 45.7307976, 6.7709085 45.7306297, 6.7707965 45.7304962, 6.7706683 45.7303782, 6.770499 45.7303051, 6.7703839 45.7302303, 6.770294 45.7300594, 6.7577505 45.7149297, 6.743803 45.7021932, 6.7354774 45.6967082, 6.7187395 45.7221409, 6.7066048 45.735009, 6.711595 45.7388065, 6.7161441 45.7457399, 6.7134007 45.7497575, 6.713273 45.749894, 6.7128985 45.750046, 6.7126285 45.750129, 6.7123991 45.7501898, 6.7121901 45.7501999, 6.7119463 45.7501432, 6.7118185 45.7500804, 6.711653 45.7501331, 6.7115282 45.7501594, 6.7113575 45.7502447, 6.7112079 45.7502624, 6.7110694 45.7502713, 6.7109194 45.7503725, 6.7107539 45.7505669, 6.7106145 45.750731, 6.7105352 45.7510173, 6.7104452 45.7513293, 6.7104191 45.7514873, 6.7103905 45.7516361, 6.7103855 45.751782, 6.7103291 45.7519066, 6.7102565 45.7521659, 6.7102246 45.7523158, 6.710213 45.75249, 6.7102652 45.7526258, 6.7103668 45.7527027, 6.7105091 45.7527412, 6.7106893 45.7528774, 6.710849 45.7530184, 6.710788 45.7531014, 6.7107532 45.7532432, 6.7106257 45.7533066, 6.7105144 45.7534301, 6.710394 45.7536188, 6.7102106 45.7537998, 6.7101815 45.7539414, 6.710349 45.7540725, 6.7102974 45.7541669, 6.7101493 45.7543411, 6.7100042 45.754408, 6.7097168 45.7545194, 6.70965 45.754649, 6.7096326 45.7548638, 6.7096993 45.7550906, 6.7098387 45.7552365, 6.7101348 45.7553175, 6.7102393 45.7554633, 6.7101261 45.7556355, 6.7103584 45.7558421, 6.7104571 45.7559231, 6.7105325 45.7560832, 6.7106225 45.7561399, 6.7109012 45.7561561, 6.7111945 45.7562999, 6.7114064 45.7563303, 6.7117983 45.7564052, 6.7121641 45.7566098, 6.7123093 45.7567273, 6.7126635 45.7568569, 6.7129712 45.7571283, 6.7135547 45.7574585, 6.7135779 45.7576367, 6.7136912 45.7577259, 6.713877 45.7579102, 6.7137986 45.758133, 6.7138624 45.7582444, 6.7138595 45.7584054, 6.7138799 45.7585573, 6.7139002 45.7586788, 6.7137608 45.7587639, 6.713607 45.7588753, 6.7136331 45.7590151, 6.7136679 45.7591852, 6.7137579 45.7593148, 6.713877 45.7593452, 6.7140599 45.7593918, 6.7142515 45.7594728, 6.7144169 45.7596956, 6.7145011 45.7598495, 6.7144257 45.7599913, 6.7142137 45.7599954, 6.7141615 45.760046, 6.7141295 45.7601979, 6.7143024 45.760498, 6.7142908 45.7606276, 6.7143257 45.760743, 6.7143924 45.7609051, 6.7143924 45.7610772, 6.7144737 45.7611988, 6.7144737 45.7612858, 6.7144553 45.7614434, 6.7143442 45.7615646, 6.7141964 45.7617196, 6.7139455 45.761902, 6.7136986 45.7620616, 6.7135579 45.7621873, 6.7132999 45.762327, 6.7132836 45.7624596, 6.713287 45.7626449, 6.7132768 45.7629108, 6.7133437 45.7631102, 6.7136737 45.7632576, 6.7137905 45.7633724, 6.7138473 45.7636413, 6.7138502 45.7637973, 6.7138966 45.7640965, 6.7139024 45.7643456, 6.7137689 45.764542, 6.7136092 45.7646352, 6.7134641 45.7647182, 6.7133712 45.7649795, 6.7133683 45.765101, 6.7135018 45.765263, 6.7135831 45.7653622, 6.7135631 45.7655153, 6.7134153 45.7656886, 6.713405 45.7659163, 6.7135899 45.7660897, 6.7137699 45.7663186, 6.7138483 45.7665656, 6.7139645 45.7667317, 6.7140457 45.7669363, 6.7140457 45.7671205, 6.7140515 45.767238, 6.7141096 45.7672785, 6.7142722 45.7672967, 6.7145393 45.767477, 6.7145509 45.7676187, 6.7144638 45.7677888, 6.7146089 45.7681898, 6.7148586 45.7684106, 6.7150779 45.7688203, 6.7152093 45.7691096, 6.7152319 45.7692241, 6.715236 45.7692857, 6.7154269 45.769406, 6.7156424 45.7697196, 6.7157738 45.7697625, 6.7159257 45.76988, 6.7160797 45.7699573, 6.7162952 45.7701434, 6.7164184 45.7702279, 6.7165806 45.7703525, 6.7166401 45.7708852, 6.7166791 45.7709983, 6.7168064 45.7711429, 6.7169535 45.771591, 6.7169099 45.7717733, 6.7169186 45.7718766, 6.7170347 45.7719859, 6.7170696 45.7721337, 6.7171034 45.772433, 6.7170787 45.7725719, 6.7171054 45.7726793, 6.7172142 45.7727452, 6.7173928 45.772811, 6.7174934 45.773053, 6.7177046 45.7732717, 6.7178273 45.773413, 6.7178998 45.7736519, 6.7178099 45.7739476, 6.7177576 45.7741096, 6.7176211 45.7742189, 6.7173715 45.7742736, 6.717116 45.7742797, 6.7167647 45.7742473, 6.7164889 45.7742695, 6.716338 45.7743647, 6.7162451 45.7745713, 6.7162293 45.7747644, 6.7164325 45.7751248, 6.7164877 45.7752969, 6.7164488 45.7753522, 6.7164064 45.7754124, 6.7161509 45.7754771, 6.7159603 45.7755714, 6.7158319 45.7756778, 6.7157158 45.7757671, 6.7155193 45.7759413, 6.7153666 45.7761719, 6.7153435 45.776309, 6.715399 45.7765477, 6.7155516 45.7767621, 6.7156511 45.7768944, 6.7156834 45.7769976, 6.7156534 45.7771202, 6.7154314 45.7772121, 6.7152464 45.7772766, 6.71514 45.7773798, 6.7150522 45.7775669, 6.7150568 45.7776362, 6.7151539 45.7777572, 6.7152461 45.7778001, 6.7152974 45.7778283, 6.7153398 45.7778633, 6.7155944 45.778053, 6.7157193 45.7781514, 6.7159089 45.7782643, 6.7161748 45.7783111, 6.7164014 45.7784578, 6.7166234 45.778511, 6.7167178 45.7786503, 6.7167691 45.7788626, 6.7167945 45.7790319, 6.7168247 45.7791362, 6.7169114 45.7792458, 6.7169948 45.7793522, 6.7170336 45.7795081, 6.7169158 45.7797727, 6.7167458 45.7799654, 6.7167862 45.7800783, 6.7167151 45.7801564, 6.7167216 45.7802328, 6.7167585 45.7803083, 6.716825 45.7804143, 6.716903 45.7805171, 6.7169735 45.7806135, 6.7169342 45.7807199, 6.7167261 45.7809651, 6.7165365 45.7811989, 6.7163862 45.7813988, 6.7162401 45.7814297, 6.7160602 45.7814676, 6.7157643 45.7814654, 6.7155305 45.7814779, 6.7152983 45.7815426, 6.715154 45.7815828, 6.7149389 45.7818392, 6.7146406 45.7823182, 6.7144582 45.7827354, 6.7144054 45.7829228, 6.7143204 45.7829695, 6.714152 45.7830163, 6.7140163 45.7831588, 6.7138969 45.783258, 6.7137547 45.7832586, 6.7136754 45.7832609, 6.7135261 45.783293, 6.7134058 45.7833269, 6.7133029 45.7833866, 6.7131639 45.7836373, 6.7130529 45.783759, 6.7128957 45.7838477, 6.7123956 45.7840002, 6.7121999 45.7842169, 6.7121121 45.7844926, 6.7120539 45.7847159, 6.7119063 45.7853381, 6.7118855 45.785559, 6.7119994 45.7857443, 6.7119661 45.7858774, 6.7119754 45.785989, 6.7120219 45.7865459, 6.7120651 45.7867086))
